code,country,country_code,acronym,name_fr,name_original,name,ep2024_group_code,ep2024_group_name,ep2019_group_code,ep2019_group_name,ep2019_group_acronym,ep2014_group_code,ep2014_group_name,ep2014_group_acronym,pol_position_primary_code,pol_position_primary_name,pol_position_secondary_code,pol_position_secondary_name,ep_belgium_electoral_college,ep_name,ep_name_alt,ee_name,ee_name_alt
AUT-MISC,Austria,AUT,MISC,Autres partis,,Others parties,NC,Groupe inconnu,NC,Unknown,NC,NC,Unknown,NC,NC,Unknown,,,,,,,
AUT-GRUENE,Austria,AUT,GRUENE,Les Verts - L'Alternative verte,Die Grünen – Die Grüne Alternative,,VERTS,Verts et ALE,VERTS,Greens/European Free Alliance,Greens/EFA,VERTS,Greens/European Free Alliance,Greens/EFA,ECO,Ecologist,,,,Die Grünen - Die Grüne Alternative,,Die Grünen – Die Grüne Alternative,
AUT-PILZ,Austria,AUT,PILZ,Liste Peter Pilz,,,NI,Non-inscrits,NI,Non-attached members,NI,NI,Non-attached members,NI,ECO,Ecologist,GAU,Left,,nc,,,
AUT-JETZT,Austria,AUT,JETZT,Maintenant – liste Pilz,Jetzt – Liste Pilz,,NC,Groupe inconnu,NC,Unknown,NC,NC,Unknown,NC,GAU,Left,,,,nc,,,
AUT-NEOS,Austria,AUT,NEOS,"NEOS, la nouvelle Autriche et le Forum libéral",NEOS – Das Neue Österreich,,RE,Renew Europe,RE,Renew Europe,RE,ADLE,Alliance of Liberals and Democrats for Europe,ALDE,LIB,Liberal,CEN,Center,,NEOS – Das Neue Österreich,,NEOS – Das Neue Österreich,
AUT-KPO,Austria,AUT,KPO,Parti communiste d'Autriche,Kommunistische Partei Österreichs,Communist Party of Austria,LEFT,Gauche unitaire,GUE,European United Left – Nordic Green Left,GUE/NGL,,,,EXG,Far left,,,,,,Kommunistische Partei Österreichs,
AUT-BIER,Austria,AUT,BIER,Parti de la bière,Die Bierpartei,The Beer Party,NC,Groupe inconnu,NC,Unknown,NC,,,,AUT,Others,,,,,,Die Bierpartei,
AUT-FPOE,Austria,AUT,FPOE,Parti de la Liberté,Freiheitliche Partei Österreichs,,PPLE,Les Patriotes,ID,Identity and Democracy,IL,ENL,Europe of Nations and Freedom,ENL,EXD,Far right,DSV,Right nationalist,,Freiheitliche Partei Österreichs,,Freiheitliche Partei Österreichs,
AUT-OEVP,Austria,AUT,OEVP,Parti populaire autrichien,Österreichische Volkspartei,,PPE,Parti populaire européen,PPE,European People's Party,EPP,PPE,European People's Party,EPP,DRO,Right,,,,Österreichische Volkspartei,,Österreichische Volkspartei,
AUT-SPOE,Austria,AUT,SPOE,Parti social-démocrate d'Autriche,Sozialdemokratische Partei Österreichs,,SED,Socialistes et démocrates,SED,Progressive Alliance of Socialists and Democrats,S&D,SED,Progressive Alliance of Socialists and Democrats,S&D,GAU,Left,,,,Sozialdemokratische Partei Österreichs,,Sozialdemokratische Partei Österreichs,
AUT-TS,Austria,AUT,TS,Team Stronach,,,NI,Non-inscrits,NI,Non-attached members,NI,NI,Non-attached members,NI,DRO,Right,DSV,Right nationalist,,nc,,,
BEL-CDV,Belgium,BEL,CDV,CD&V (conservateurs flamands),Christen-Democratisch & Vlaams,,PPE,Parti populaire européen,PPE,European People's Party,EPP,PPE,European People's Party,EPP,DRO,Right,,,Dutch-speaking,Christen-Democratisch & Vlaams,,Christen-Democratisch en Vlaams,
BEL-DEFI,Belgium,BEL,DEFI,Défi,,,NI,Non-inscrits,NI,Non-attached members,NI,NI,Non-attached members,NI,CEN,Center,,,French-speaking,nc,,,
BEL-ECOLO,Belgium,BEL,ECOLO,Ecolo,Écologistes confédérés pour l’organisation de luttes originales,Ecolo,VERTS,Verts et ALE,VERTS,Greens/European Free Alliance,Greens/EFA,VERTS,Greens/European Free Alliance,Greens/EFA,ECO,Ecologist,,,French-speaking,Ecologistes Confédérés pour l'Organisation de Luttes Originales,,Ecolo,
BEL-GROEN,Belgium,BEL,GROEN,Groen,Groen,,VERTS,Verts et ALE,VERTS,Greens/European Free Alliance,Greens/EFA,VERTS,Greens/European Free Alliance,Greens/EFA,ECO,Ecologist,,,Dutch-speaking,Groen,,Groen,
BEL-CDH,Belgium,BEL,CDH,Les Engagés,Les Engagés,,PPE,Parti populaire européen,PPE,European People's Party,EPP,PPE,European People's Party,EPP,DRO,Right,,,French-speaking,Centre Démocrate Humaniste,Les Engagés,Les Engagés,
BEL-MR,Belgium,BEL,MR,Mouvement Réformateur,Mouvement Réformateur,,RE,Renew Europe,RE,Renew Europe,RE,ADLE,Alliance of Liberals and Democrats for Europe,ALDE,CEN,Center,,,French-speaking,Mouvement Réformateur,,Mouvement Réformateur,
BEL-NVA,Belgium,BEL,NVA,Nouvelle alliance flamande,Nieuw-Vlaamse Alliantie,,CRE,Conservateurs et réformistes,CRE,European Conservatives and Reformists,CRE,CRE,European Conservatives and Reformists,CRE,DRO,Right,EXD,Far right,Dutch-speaking,Nieuw-Vlaamse Alliantie,,Nieuw-Vlaamse Alliantie,
BEL-OPENVLD,Belgium,BEL,OPENVLD,Open-Vld,Open Vlaamse Liberalen en Democraten,,RE,Renew Europe,RE,Renew Europe,RE,ADLE,Alliance of Liberals and Democrats for Europe,ALDE,LIB,Liberal,CEN,Center,Dutch-speaking,Open Vlaamse Liberalen en Democraten,,Open Vlaamse Liberalen en Democraten,
BEL-CSP,Belgium,BEL,CSP,Parti chrétien-social,Christlich Soziale Partei,,PPE,Parti populaire européen,PPE,European People's Party,EPP,PPE,European People's Party,EPP,DRO,Right,,,,Christlich Soziale Partei,,Christlich Soziale Partei,
BEL-PTB,Belgium,BEL,PTB,Parti du travail de Belgique,,,LEFT,Gauche unitaire,GUE,European United Left – Nordic Green Left,GUE/NGL,GUE,European United Left – Nordic Green Left,GUE/NGL,EXG,Far left,,,French-speaking,Parti du Travail de Belgique,,Partij van de Arbeid van België/Parti du Travail de Belgique,
BEL-PVDA,Belgium,BEL,PVDA,Parti du travail de Belgique,,,LEFT,Gauche unitaire,GUE,European United Left – Nordic Green Left,GUE/NGL,GUE,European United Left – Nordic Green Left,GUE/NGL,EXG,Far left,,,Dutch-speaking,,,,
BEL-PVDAPTB,Belgium,BEL,PVDAPTB,Parti du travail de Belgique,,,NI,Non-inscrits,NI,Non-attached members,NI,NI,Non-attached members,NI,EXG,Far left,,,multiple,,,,
BEL-PP,Belgium,BEL,PP,Parti populaire,Parti populaire,,NI,Non-inscrits,NI,Non-attached members,NI,NI,Non-attached members,NI,EXD,Far right,DSV,Right nationalist,French-speaking,Parti populaire,,,
BEL-PS,Belgium,BEL,PS,Parti socialiste francophone,Parti socialiste,,SED,Socialistes et démocrates,SED,Progressive Alliance of Socialists and Democrats,S&D,SED,Progressive Alliance of Socialists and Democrats,S&D,GAU,Left,,,French-speaking,Parti Socialiste,,Parti Socialiste,
BEL-VLAAMSBELANG,Belgium,BEL,VLAAMSBELANG,Vlaams Belang,Vlaams Belang,,PPLE,Les Patriotes,ID,Identity and Democracy,IL,ENL,Europe of Nations and Freedom,ENL,EXD,Far right,DSV,Right nationalist,Dutch-speaking,Vlaams Belang,,Vlaams Belang,
BEL-SPA,Belgium,BEL,SPA,Vooruit,Vooruit,,SED,Socialistes et démocrates,SED,Progressive Alliance of Socialists and Democrats,S&D,SED,Progressive Alliance of Socialists and Democrats,S&D,GAU,Left,,,Dutch-speaking,Socialistische Partij.Anders,Vooruit,Vooruit,
BGR-ABV,Bulgary,BGR,ABV,Alternative pour la renaissance bulgare,,,NI,Non-inscrits,NI,Non-attached members,NI,NI,Non-attached members,NI,GAU,Left,,,,nc,,,
BGR-MISC,Bulgary,BGR,MISC,Autres partis,,Others parties,NC,Groupe inconnu,NC,Unknown,NC,NC,Unknown,NC,NC,Unknown,,,,,,,
BGR-RB,Bulgary,BGR,RB,Bloc réformateur,,,RE,Renew Europe,RE,Renew Europe,RE,ADLE,Alliance of Liberals and Democrats for Europe,ALDE,CEN,Center,,,,nc,,,
BGR-DB,Bulgary,BGR,DB,Bulgarie démocratique,Demokraticheska partia,,PPE,Parti populaire européen,PPE,European People's Party,EPP,PPE,European People's Party,EPP,CEN,Center,DRO,Right,,,,,
BGR-GERB,Bulgary,BGR,GERB,Citoyens pour le développement européen de la Bulgarie,Citizens for European Development of Bulgaria,,PPE,Parti populaire européen,PPE,European People's Party,EPP,PPE,European People's Party,EPP,DRO,Right,,,,Citizens for European Development of Bulgaria,,Граждани за европейско развитие на България (GERB),
BGR-DSB,Bulgary,BGR,DSB,Démocrates pour une Bulgarie forte,Democrats for Strong Bulgaria,,PPE,Parti populaire européen,PPE,European People's Party,EPP,PPE,European People's Party,EPP,DRO,Right,,,,Democrats for Strong Bulgaria,,,
BGR-NFSB,Bulgary,BGR,NFSB,Front national pour le salut de la Bulgarie,Natzionalen Front za Spasenie na Bulgaria,National Front for the Salvation of Bulgaria,NI,Non-inscrits,NI,Non-attached members,NI,ELDD,Europe of Freedom and Direct Democracy,ELDD,DRO,Right,,,,,,,
BGR-ITN,Bulgary,BGR,ITN,Il y a un tel peuple,Ima takăv narod,There is Such a People,CRE,Conservateurs et réformistes,CRE,European Conservatives and Reformists,CRE,NC,Unknown,NC,AUT,Others,,,,There Is Such a People,,Има такъв народ (ITN),
BGR-DPS,Bulgary,BGR,DPS,Mouvement des droits et des libertés,,,RE,Renew Europe,RE,Renew Europe,RE,ADLE,Alliance of Liberals and Democrats for Europe,ALDE,CEN,Center,,,,nc,,Движение за права и свободи (DPS),
BGR-MRF,Bulgary,BGR,MRF,Mouvement des droits et des libertés,Movement for Rights and Freedoms,,RE,Renew Europe,RE,Renew Europe,RE,ADLE,Alliance of Liberals and Democrats for Europe,ALDE,AUT,Others,CEN,Center,,Movement for Rights and Freedoms,,,
BGR-BMPO,Bulgary,BGR,BMPO,Mouvement national bulgare,,,CRE,Conservateurs et réformistes,CRE,European Conservatives and Reformists,CRE,ELDD,Europe of Freedom and Direct Democracy,ELDD,EXD,Far right,DSV,Right nationalist,,nc,,,
BGR-VMRO,Bulgary,BGR,VMRO,Mouvement national bulgare,Bălgarsko nacionalno dviženie,Bulgarian National Movement,CRE,Conservateurs et réformistes,CRE,European Conservatives and Reformists,CRE,CRE,European Conservatives and Reformists,CRE,EXD,Far right,,,,VMRO,,,
BGR-PP,Bulgary,BGR,PP,Nous continuons le changement,Prodalzhavame promyanata,We Continue the Change,RE,Renew Europe,RE,Renew Europe,RE,,,,CEN,Center,,,,We continue the change – Democratic Bulgaria,,Продължаваме промяната (PP),
BGR-DAP,Bulgary,BGR,DAP,"Oui, Bulgarie !","Da, Balgariya!","Yes, Bulgaria!",PPE,Parti populaire européen,PPE,European People's Party,EPP,NC,Unknown,NC,LIB,Liberal,,,,,,"Да, България! (DaB)",
BGR-YESBG,Bulgary,BGR,YESBG,"Oui, Bulgarie !",,,NI,Non-inscrits,NI,Non-attached members,NI,NI,Non-attached members,NI,CEN,Center,,,,nc,,,
BGR-BSP,Bulgary,BGR,BSP,Parti socialiste bulgare,Bulgarian Socialist Party,,SED,Socialistes et démocrates,SED,Progressive Alliance of Socialists and Democrats,S&D,SED,Progressive Alliance of Socialists and Democrats,S&D,GAU,Left,,,,Bulgarian Socialist Party,,Българска социалистическа партия (BSP),
BGR-PATRIOTS,Bulgary,BGR,PATRIOTS,Patriotes unis,,,NI,Non-inscrits,NI,Non-attached members,NI,NI,Non-attached members,NI,EXD,Far right,,,,nc,,,
BGR-VOLYA,Bulgary,BGR,VOLYA,Pouvoirs,,,NI,Non-inscrits,NI,Non-attached members,NI,NI,Non-attached members,NI,DRO,Right,DSV,Right nationalist,,nc,,,
BGR-BBT,Bulgary,BGR,BBT,Recharger la Bulgarie,,,CRE,Conservateurs et réformistes,CRE,European Conservatives and Reformists,CRE,CRE,European Conservatives and Reformists,CRE,EXD,Far right,,,,nc,,,
BGR-RBP,Bulgary,BGR,RBP,Relancer la Bulgarie,Reload Bulgaria Party,,CRE,Conservateurs et réformistes,CRE,European Conservatives and Reformists,CRE,CRE,European Conservatives and Reformists,CRE,EXD,Far right,,,,Reload Bulgaria Party,,,
BGR-V,Bulgary,BGR,V,Réveil,Vazrazhdane,Revival,NC,Groupe inconnu,ID,Identity and Democracy,IL,NC,Unknown,NC,EXD,Far right,,,,Revival,,Възраждане (V),
BGR-SDS,Bulgary,BGR,SDS,Union des forces démocratiques,Sayuz na demokratichnite sili,Union of Democratic Forces,PPE,Parti populaire européen,PPE,European People's Party,EPP,,,,DRO,Right,,,,Union of Democratic Forces,,,
BGR-ATTACK,Bulgary,BGR,ATTACK,Union nationale Attaque,Nacionalno Obedinenie Atak,Attack,NC,Groupe inconnu,NC,Unknown,NC,NC,Unknown,NC,EXD,Far right,,,,,,,
HRV-NSR,Croatia,HRV,NSR,[Parti inconnu],,,NC,Groupe inconnu,NC,Unknown,NC,NC,Unknown,NC,NC,Unknown,,,,nc,,,
HRV-GLAS,Croatia,HRV,GLAS,Alliance civique libérale,Građansko-liberalni savez,,RE,Renew Europe,RE,Renew Europe,RE,ADLE,Alliance of Liberals and Democrats for Europe,ALDE,LIB,Liberal,GAU,Left,,Građansko-liberalni savez,,,
HRV-AMS,Croatia,HRV,AMS,Amsterdamska koalicija,Amsterdamska koalicija,Coalition d’Amsterdam,RE,Renew Europe,RE,Renew Europe,RE,ADLE,Alliance of Liberals and Democrats for Europe,ALDE,CEN,Center,,,,,,,
HRV-BM365,Croatia,HRV,BM365,Bandić Milan 365,,,NI,Non-inscrits,NI,Non-attached members,NI,NI,Non-attached members,NI,CEN,Center,GAU,Left,,nc,,,
HRV-ZZ,Croatia,HRV,ZZ,Bouclier humain,Živi zid,Human Shield,NC,Groupe inconnu,NC,Unknown,NC,ELDD,Europe of Freedom and Direct Democracy,ELDD,AUT,Others,AUT,Others,,Živi Zid,,,
HRV-ORAH,Croatia,HRV,ORAH,Développement durable de la Croatie,Održivi razvoj Hrvatske,Sustainable Development of Croatia,VERTS,Verts et ALE,VERTS,Greens/European Free Alliance,Greens/EFA,VERTS,Greens/European Free Alliance,Greens/EFA,ECO,Ecologist,,,,,,,
HRV-IDS,Croatia,HRV,IDS,Diète démocratique istrienne,Istarski demokratski sabor – Dieta democratica istriana,,RE,Renew Europe,RE,Renew Europe,RE,ADLE,Alliance of Liberals and Democrats for Europe,ALDE,CEN,Center,,,,Istarski demokratski sabor - Dieta democratica istriana,,,
HRV-IND,Croatia,HRV,IND,Indépendants,Independent,Independent,NC,Groupe inconnu,NC,Unknown,NC,,,,AUT,Others,,,,Independent,,,
HRV-KH,Croatia,HRV,KH,La Clé de la Croatie,Ključ Hrvatske,The Key of Croatia,NI,Non-inscrits,NI,Non-attached members,NI,,,,AUT,Others,,,,KLJUČ Hrvatske,,,
HRV-MOST,Croatia,HRV,MOST,Le Pont,,,CRE,Conservateurs et réformistes,CRE,European Conservatives and Reformists,CRE,NI,Non-attached members,NI,DRO,Right,LIB,Liberal,,nc,,Most Nezavisnih Lista,
HRV-NHR,Croatia,HRV,NHR,Les indépendants pour la Croatie,Neovisni za Hrvatsku,,NC,Groupe inconnu,NC,Unknown,NC,NC,Unknown,NC,EXD,Far right,,,,nc,,,
HRV-NLMP,Croatia,HRV,NLMP,Liste de Marijana Petir,Marijana Petir,,NC,Groupe inconnu,NC,Unknown,NC,NC,Unknown,NC,NC,Unknown,,,,,,,
HRV-NLMK,Croatia,HRV,NLMK,Liste de Mislav Kolakusic,Mislav Kolakušić,,NC,Groupe inconnu,NC,Unknown,NC,NC,Unknown,NC,NC,Unknown,,,,,,,
HRV-DPMS,Croatia,HRV,DPMS,Mouvement patriotique,Domovinski pokret,Homeland Movement,CRE,Conservateurs et réformistes,CRE,European Conservatives and Reformists,CRE,NC,Unknown,NC,EXD,Far right,,,,Domovinski pokret,,Domovinski Pokret,
HRV-M,Croatia,HRV,M,Nous pouvons !,Možemo!,We can!,VERTS,Verts et ALE,VERTS,Greens/European Free Alliance,Greens/EFA,NC,Unknown,NC,ECO,Ecologist,GAU,Left,,Možemo!,,Možemo! – politička platforma,
HRV-P,Croatia,HRV,P,Pametno,,,RE,Renew Europe,RE,Renew Europe,RE,ADLE,Alliance of Liberals and Democrats for Europe,ALDE,CEN,Center,LIB,Liberal,,nc,,,
HRV-PAMETNO,Croatia,HRV,PAMETNO,Pametno,Pametno,Pametno,RE,Renew Europe,RE,Renew Europe,RE,ADLE,Alliance of Liberals and Democrats for Europe,ALDE,CEN,Center,,,,,,,
HRV-HKS,Croatia,HRV,HKS,Parti conservateur croate,Hrvatska konzervativna stranka,,CRE,Conservateurs et réformistes,CRE,European Conservatives and Reformists,CRE,CRE,European Conservatives and Reformists,CRE,DRO,Right,,,,Hrvatska konzervativna stranka,,,
HRV-SDSS,Croatia,HRV,SDSS,Parti démocratique indépendant serbe,Samostalna demokratska srpska stranka,Independent Democratic Serb Party,SED,Socialistes et démocrates,SED,Progressive Alliance of Socialists and Democrats,S&D,SED,Progressive Alliance of Socialists and Democrats,S&D,GAU,Left,,,,,,,
HRV-HSS,Croatia,HRV,HSS,Parti paysan croate,,,PPE,Parti populaire européen,PPE,European People's Party,EPP,PPE,European People's Party,EPP,DRO,Right,,,,nc,,,
HRV-HNS,Croatia,HRV,HNS,Parti populaire croate - Démocrates libéraux,,,RE,Renew Europe,RE,Renew Europe,RE,ADLE,Alliance of Liberals and Democrats for Europe,ALDE,CEN,Center,,,,nc,,,
HRV-SDP,Croatia,HRV,SDP,Parti social-démocrate,Socijaldemokratska partija Hrvatske,,SED,Socialistes et démocrates,SED,Progressive Alliance of Socialists and Democrats,S&D,SED,Progressive Alliance of Socialists and Democrats,S&D,GAU,Left,,,,Socijaldemokratska partija Hrvatske,,Socijaldemokratska Partija Hrvatske,
HRV-HS,Croatia,HRV,HS,Souverainistes croates,Hrvatski suverenisti,Croatian Sovereignists,CRE,Conservateurs et réformistes,CRE,European Conservatives and Reformists,CRE,,,,DRO,Right,,,,Hrvatski suverenisti,,,
HRV-START,Croatia,HRV,START,Start,Start,Start,NC,Groupe inconnu,NC,Unknown,NC,NC,Unknown,NC,NC,Unknown,,,,,,,
HRV-HDZ,Croatia,HRV,HDZ,Union démocratique croate,Hrvatska demokratska zajednica,,PPE,Parti populaire européen,PPE,European People's Party,EPP,PPE,European People's Party,EPP,DRO,Right,,,,Hrvatska demokratska zajednica,,Hrvatska Demokratska Zajednica,
CYP-ALIGN,Cyprus,CYP,ALIGN,Alignement démocratique,Δημοκρατική Παράταξη,Democratic alignment,NC,Groupe inconnu,NC,Unknown,NC,NC,Unknown,NC,NC,Unknown,,,,,,,
CYP-MISC,Cyprus,CYP,MISC,Autres partis,,Others parties,NC,Groupe inconnu,NC,Unknown,NC,NC,Unknown,NC,NC,Unknown,,,,,,,
CYP-DIPA,Cyprus,CYP,DIPA,Front démocratique,Dimokratikí Parátaxi,Democratic Alignment,RE,Renew Europe,RE,Renew Europe,RE,,,,CEN,Center,,,,,,,
CYP-ELAM,Cyprus,CYP,ELAM,Front populaire national,Ethniko Laiko Metopo,National Popular Front,NI,Non-inscrits,NI,Non-attached members,NI,NC,Unknown,NC,EXD,Far right,,,,Εθνικό Λαϊκό Μέτωπο,,Εθνικό Λαϊκό Μέτωπο (ELAM),
CYP-SYPOL,Cyprus,CYP,SYPOL,L’Alliance des citoyens,,,RE,Renew Europe,RE,Renew Europe,RE,ADLE,Alliance of Liberals and Democrats for Europe,ALDE,CEN,Center,,,,nc,,,
CYP-KOSP,Cyprus,CYP,KOSP,Mouvement écologiste – Coopération citoyenne,,,VERTS,Verts et ALE,VERTS,Greens/European Free Alliance,Greens/EFA,VERTS,Greens/European Free Alliance,Greens/EFA,ECO,Ecologist,,,,nc,,,
CYP-EDEK,Cyprus,CYP,EDEK,Mouvement pour la démocratie sociale,Movement for Social Democracy EDEK,,SED,Socialistes et démocrates,SED,Progressive Alliance of Socialists and Democrats,S&D,SED,Progressive Alliance of Socialists and Democrats,S&D,GAU,Left,,,,Movement for Social Democracy EDEK,,,
CYP-KA,Cyprus,CYP,KA,Mouvement solidarité,,,CRE,Conservateurs et réformistes,CRE,European Conservatives and Reformists,CRE,CRE,European Conservatives and Reformists,CRE,DRO,Right,,,,nc,,,
CYP-DIKO,Cyprus,CYP,DIKO,Parti démocrate,Democratic Party,,SED,Socialistes et démocrates,SED,Progressive Alliance of Socialists and Democrats,S&D,SED,Progressive Alliance of Socialists and Democrats,S&D,GAU,Left,,,,Democratic Party,,Δημοκρατικό Κόμμα (DIKO),
CYP-EVROKO,Cyprus,CYP,EVROKO,Parti européen,,,NI,Non-inscrits,NI,Non-attached members,NI,NI,Non-attached members,NI,CEN,Center,,,,nc,,,
CYP-AKEL,Cyprus,CYP,AKEL,Parti progressiste des travailleurs,Progressive Party of Working People – Left – New Forces,,LEFT,Gauche unitaire,GUE,European United Left – Nordic Green Left,GUE/NGL,GUE,European United Left – Nordic Green Left,GUE/NGL,EXG,Far left,,,,Progressive Party of Working People - Left - New Forces,,Ανορθωτικό Κόμμα Εργαζόμενου Λαού (AKEL),
CYP-DISY,Cyprus,CYP,DISY,Rassemblement démocrate,Democratic Rally,,PPE,Parti populaire européen,PPE,European People's Party,EPP,PPE,European People's Party,EPP,DRO,Right,,,,Democratic Rally,,Δημοκρατικός Συναγερμός (DISY),
CZE-TOP09STAN,Czech Republic,CZE,TOP09STAN,Alliance Top 09 et Stan,TOP09 + STAN,,PPE,Parti populaire européen,PPE,European People's Party,EPP,PPE,European People's Party,EPP,DRO,Right,,,,,,,
CZE-ZELENI,Czech Republic,CZE,ZELENI,Green Party,Strana zelených),Green Party,VERTS,Verts et ALE,VERTS,Greens/European Free Alliance,Greens/EFA,VERTS,Greens/European Free Alliance,Greens/EFA,AUT,Others,,,,,,,
CZE-IND,Czech Republic,CZE,IND,Indépendants,Indépendants,Independents,NC,Groupe inconnu,NC,Unknown,NC,NC,Unknown,NC,NC,Unknown,,,,Independent,,,
CZE-SPD,Czech Republic,CZE,SPD,Liberté et Démocratie directe,Svoboda a přímá demokracie,,NC,Groupe inconnu,ID,Identity and Democracy,IL,ENL,Europe of Nations and Freedom,ENL,EXD,Far right,,,,Svoboda a přímá demokracie,,Svoboda a Přímá Demokracie,
CZE-CZSTAN,Czech Republic,CZE,CZSTAN,Maires et Indépendants,Starostové a nezávisli,,PPE,Parti populaire européen,PPE,European People's Party,EPP,PPE,European People's Party,EPP,DRO,Right,CEN,Center,,Starostové a nezávisli,,,
CZE-STAN,Czech Republic,CZE,STAN,Maires et indépendants,Starostové a nezávislí,Mayors and Independents,PPE,Parti populaire européen,PPE,European People's Party,EPP,PPE,European People's Party,EPP,DRO,Right,CEN,Center,,,,Starostové a Nezávislí,
CZE-ANO,Czech Republic,CZE,ANO,Oui 2011,ANO 2011,,PPLE,Les Patriotes,RE,Renew Europe,RE,ADLE,Alliance of Liberals and Democrats for Europe,ALDE,CEN,Center,DRO,Right,,ANO 2011,,ANO 2011,
CZE-KSCM,Czech Republic,CZE,KSCM,Parti communiste de Bohême et Moravie,Komunistická strana Čech a Moravy,,LEFT,Gauche unitaire,GUE,European United Left – Nordic Green Left,GUE/NGL,GUE,European United Left – Nordic Green Left,GUE/NGL,EXG,Far left,DSV,Right nationalist,,Komunistická strana Čech a Moravy,,Komunistická strana Čech a Moravy,
CZE-ODS,Czech Republic,CZE,ODS,Parti démocrate civique,Občanská demokratická strana,,CRE,Conservateurs et réformistes,CRE,European Conservatives and Reformists,CRE,CRE,European Conservatives and Reformists,CRE,DRO,Right,DSV,Right nationalist,,Občanská demokratická strana,,Občanská Demokratická Strana,
CZE-SVOBODNI,Czech Republic,CZE,SVOBODNI,Parti des citoyens libres,Strana svobodných občanů,,NI,Non-inscrits,NI,Non-attached members,NI,ELDD,Europe of Freedom and Direct Democracy,ELDD,LIB,Liberal,DSV,Right nationalist,,Strana svobodných občanů,,,
CZE-PIRATI,Czech Republic,CZE,PIRATI,Parti pirate tchèque,Česká Pirátská Strana,,VERTS,Verts et ALE,VERTS,Greens/European Free Alliance,Greens/EFA,VERTS,Greens/European Free Alliance,Greens/EFA,AUT,Others,GAU,Left,,PIRÁTI,,Česká Pirátská Strana,Česká Pirátská Strana
CZE-CSSD,Czech Republic,CZE,CSSD,Parti social-démocrate tchèque,Česká strana sociálně demokratická,,SED,Socialistes et démocrates,SED,Progressive Alliance of Socialists and Democrats,S&D,SED,Progressive Alliance of Socialists and Democrats,S&D,GAU,Left,,,,Česká strana sociálně demokratická,,,
CZE-SZ,Czech Republic,CZE,SZ,Parti vert,,,VERTS,Verts et ALE,VERTS,Greens/European Free Alliance,Greens/EFA,VERTS,Greens/European Free Alliance,Greens/EFA,ECO,Ecologist,,,,nc,,,
CZE-PSH,Czech Republic,CZE,PSH,Serment,Přísaha,Oath,PPE,Parti populaire européen,PPE,European People's Party,EPP,,,,AUT,Others,,,,Přísaha,,Přísaha – občanské hnutí Roberta Šlachty,
CZE-TOP09,Czech Republic,CZE,TOP09,"Tradition, responsabilité, prospérité",Tradice Odpovědnost Prosperita,Tradition Responsibility Prosperity,PPE,Parti populaire européen,PPE,European People's Party,EPP,PPE,European People's Party,EPP,DRO,Right,,,,,,TOP 09,
CZE-TOP9,Czech Republic,CZE,TOP9,"Tradition, responsabilité, prospérité",TOP 09 a Starostové,,PPE,Parti populaire européen,PPE,European People's Party,EPP,PPE,European People's Party,EPP,DRO,Right,,,,TOP 09 a Starostové,,,
CZE-KDU,Czech Republic,CZE,KDU,Union chrétienne démocrate - Parti populaire tchécoslovaque,Křesťanská a demokratická unie – Československá strana lidová,,PPE,Parti populaire européen,PPE,European People's Party,EPP,PPE,European People's Party,EPP,DRO,Right,,,,Křesťanská a demokratická unie - Československá strana lidová,,,
CZE-KDUCSL,Czech Republic,CZE,KDUCSL,Union chrétienne démocrate – Parti populaire tchécoslovaque,Křesťanská a demokratická unie – Československá strana lidová,Christian and Democratic Union – Czechoslovak People's Party,PPE,Parti populaire européen,PPE,European People's Party,EPP,NC,Unknown,NC,DRO,Right,,,,,,Křesťanská a Demokratická Unie – Československá Strana Lidová,
DNK-I,Denmark,DNK,I,Alliance libérale,Liberal Alliance,Liberal Alliance,PPE,Parti populaire européen,PPE,European People's Party,EPP,NC,Unknown,NC,LIB,Liberal,,,,Liberal Alliance,,Liberal Alliance,
DNK-K,Denmark,DNK,K,Chrétiens démocrates,,,PPE,Parti populaire européen,PPE,European People's Party,EPP,PPE,European People's Party,EPP,DRO,Right,,,,nc,,,
DNK-DD,Denmark,DNK,DD,Démocrates danois,Danmarksdemokraterne,Denmark Democrats,NI,Non-inscrits,NI,Non-attached members,NI,NC,Unknown,NC,EXD,Far right,,,,Danmarksdemokraterne,,Danmarksdemokraterne,
DNK-EL,Denmark,DNK,EL,L’Alliance rouge-verte,Enhedslisten – De Rød-Grønne,Red-Green Alliance,LEFT,Gauche unitaire,GUE,European United Left – Nordic Green Left,GUE/NGL,,,,EXG,Far left,,,,Enhedslisten,,Enhedslisten – De Rød-Grønne,
DNK-ALT,Denmark,DNK,ALT,L’Alternative,,,NI,Non-inscrits,NI,Non-attached members,NI,NI,Non-attached members,NI,ECO,Ecologist,AUT,Others,,nc,,,
DNK-D,Denmark,DNK,D,La nouvelle droite,,,NI,Non-inscrits,NI,Non-attached members,NI,NI,Non-attached members,NI,EXD,Far right,,,,nc,,,
DNK-E,Denmark,DNK,E,Le parti de Klaus Riskær Pedersen,Klaus Riskær Pedersen,Klaus Riskær Pedersen’s Party,NC,Groupe inconnu,NC,Unknown,NC,NC,Unknown,NC,CEN,Center,DRO,Right,,,,,
DNK-RG,Denmark,DNK,RG,Liste de l’unité,,,LEFT,Gauche unitaire,GUE,European United Left – Nordic Green Left,GUE/NGL,GUE,European United Left – Nordic Green Left,GUE/NGL,EXG,Far left,DSV,Right nationalist,,nc,,,
DNK-M,Denmark,DNK,M,Modérés,Moderaterne,Moderates,RE,Renew Europe,RE,Renew Europe,RE,,,,CEN,Center,,,,MODERATERNE,,Moderaterne,
DNK-N,Denmark,DNK,N,Mouvement des peuples contre l’UE,Folkebevægelsen mod EU,People's Movement against the EU,LEFT,Gauche unitaire,GUE,European United Left – Nordic Green Left,GUE/NGL,GUE,European United Left – Nordic Green Left,GUE/NGL,AUT,Others,,,,,,,
DNK-FM,Denmark,DNK,FM,Mouvement populaire contre l'Union européenne,Folkebevægelsen mod EU,,LEFT,Gauche unitaire,GUE,European United Left – Nordic Green Left,GUE/NGL,GUE,European United Left – Nordic Green Left,GUE/NGL,EXG,Far left,,,,Folkebevægelsen mod EU,,,
DNK-V,Denmark,DNK,V,Parti libéral du Danemark,"Venstre, Danmarks Liberale Parti",,RE,Renew Europe,RE,Renew Europe,RE,ADLE,Alliance of Liberals and Democrats for Europe,ALDE,LIB,Liberal,CEN,Center,,"Venstre, Danmarks Liberale Parti",,Venstre – Danmarks Liberale Parti,
DNK-C,Denmark,DNK,C,Parti populaire conservateur,Det Konservative Folkeparti,,PPE,Parti populaire européen,PPE,European People's Party,EPP,PPE,European People's Party,EPP,DRO,Right,,,,Det Konservative Folkeparti,,Det Konservative Folkeparti,
DNK-O,Denmark,DNK,O,Parti populaire danois,Dansk Folkeparti,Danish People's Party,PPLE,Les Patriotes,ID,Identity and Democracy,IL,ENL,Europe of Nations and Freedom,ENL,EXD,Far right,DSV,Right nationalist,,Dansk Folkeparti,,Dansk Folkeparti,
DNK-F,Denmark,DNK,F,Parti populaire socialiste,Socialistisk Folkeparti,,VERTS,Verts et ALE,VERTS,Greens/European Free Alliance,Greens/EFA,VERTS,Greens/European Free Alliance,Greens/EFA,GAU,Left,ECO,Ecologist,,Socialistisk Folkeparti,,SF – Socialistisk Folkeparti,
DNK-B,Denmark,DNK,B,Parti social-libéral danois,Det Radikale Venstre,,RE,Renew Europe,RE,Renew Europe,RE,ADLE,Alliance of Liberals and Democrats for Europe,ALDE,CEN,Center,LIB,Liberal,,Det Radikale Venstre,,Radikale Venstre,
DNK-A,Denmark,DNK,A,Sociaux-démocrates,Socialdemokratiet,,SED,Socialistes et démocrates,SED,Progressive Alliance of Socialists and Democrats,S&D,SED,Progressive Alliance of Socialists and Democrats,S&D,GAU,Left,,,,Socialdemokratiet,,Socialdemokratiet,
EST-IND,Estonia,EST,IND,[Parti inconnu],Sõltumatu,,VERTS,Verts et ALE,VERTS,Greens/European Free Alliance,Greens/EFA,VERTS,Greens/European Free Alliance,Greens/EFA,NC,Unknown,,,,Sõltumatu,,,
EST-E200,Estonia,EST,E200,Estonie 200,Eesti 200,,NC,Groupe inconnu,NC,Unknown,NC,NC,Unknown,NC,CEN,Center,,,,Eesti Konservatiivne Rahvaerakond,,Eesti Konservatiivne Rahvaerakond,
EST-KESK,Estonia,EST,KESK,Parti du Centre,Eesti Keskerakond,,RE,Renew Europe,RE,Renew Europe,RE,ADLE,Alliance of Liberals and Democrats for Europe,ALDE,LIB,Liberal,,,,Eesti Keskerakond,,Eesti Keskerakond,
EST-EVA,Estonia,EST,EVA,Parti libre estonien,,,NI,Non-inscrits,NI,Non-attached members,NI,NI,Non-attached members,NI,DRO,Right,,,,nc,,,
EST-EKRE,Estonia,EST,EKRE,Parti populaire conservateur,,,NC,Groupe inconnu,ID,Identity and Democracy,IL,ENL,Europe of Nations and Freedom,ENL,EXD,Far right,,,,nc,,,
EST-REF,Estonia,EST,REF,Parti réformateur,Eesti Reformierakond,,RE,Renew Europe,RE,Renew Europe,RE,ADLE,Alliance of Liberals and Democrats for Europe,ALDE,LIB,Liberal,CEN,Center,,Eesti Reformierakond,,Eesti Reformierakond,
EST-SDE,Estonia,EST,SDE,Parti social-démocrate,Sotsiaaldemokraatlik Erakond,,SED,Socialistes et démocrates,SED,Progressive Alliance of Socialists and Democrats,S&D,SED,Progressive Alliance of Socialists and Democrats,S&D,GAU,Left,,,,Sotsiaaldemokraatlik Erakond,,Sotsiaaldemokraatlik Erakond,
EST-IRL,Estonia,EST,IRL,Union Pro Patria et Res Publica,Isamaa,,PPE,Parti populaire européen,PPE,European People's Party,EPP,PPE,European People's Party,EPP,DRO,Right,,,,Isamaa,,Isamaa,
EST-GREEN,Estonia,EST,GREEN,Verts estoniens,,,VERTS,Verts et ALE,VERTS,Greens/European Free Alliance,Greens/EFA,VERTS,Greens/European Free Alliance,Greens/EFA,ECO,Ecologist,,,,nc,,,
FIN-VAS,Finland,FIN,VAS,Alliance de gauche,Vasemmistoliitto,,LEFT,Gauche unitaire,GUE,European United Left – Nordic Green Left,GUE/NGL,GUE,European United Left – Nordic Green Left,GUE/NGL,EXG,Far left,,,,Vasemmistoliitto,,Vasemmistoliitto,
FIN-KD,Finland,FIN,KD,Chrétiens démocrates,Kristillisdemokraatit,,PPE,Parti populaire européen,PPE,European People's Party,EPP,PPE,European People's Party,EPP,DRO,Right,,,,Kristillisdemokraatit,,,
FIN-SIN,Finland,FIN,SIN,La réforme bleue,,,CRE,Conservateurs et réformistes,CRE,European Conservatives and Reformists,CRE,CRE,European Conservatives and Reformists,CRE,DRO,Right,LIB,Liberal,,nc,,,
FIN-VIHR,Finland,FIN,VIHR,Ligue verte,Vihreä liitto,,VERTS,Verts et ALE,VERTS,Greens/European Free Alliance,Greens/EFA,VERTS,Greens/European Free Alliance,Greens/EFA,ECO,Ecologist,GAU,Left,,Vihreä liitto,,Vihreä Liitto,
FIN-KOK,Finland,FIN,KOK,Parti de la coalition nationale,Kansallinen Kokoomus,,PPE,Parti populaire européen,PPE,European People's Party,EPP,PPE,European People's Party,EPP,DRO,Right,,,,Kansallinen Kokoomus,,Kansallinen Kokoomus,
FIN-KESK,Finland,FIN,KESK,Parti du Centre,Suomen Keskusta,,RE,Renew Europe,RE,Renew Europe,RE,ADLE,Alliance of Liberals and Democrats for Europe,ALDE,LIB,Liberal,LIB,Liberal,,Suomen Keskusta,,Suomen Keskusta,
FIN-SFP,Finland,FIN,SFP,Parti populaire suédois de Finlande,Svenska folkpartiet,,RE,Renew Europe,RE,Renew Europe,RE,ADLE,Alliance of Liberals and Democrats for Europe,ALDE,CEN,Center,LIB,Liberal,,Svenska folkpartiet,,,
FIN-SDP,Finland,FIN,SDP,Parti social-démocrate de Finlande,Suomen Sosialidemokraattinen Puolue/Finlands Socialdemokratiska Parti,,SED,Socialistes et démocrates,SED,Progressive Alliance of Socialists and Democrats,S&D,SED,Progressive Alliance of Socialists and Democrats,S&D,GAU,Left,,,,Suomen Sosialidemokraattinen Puolue/Finlands Socialdemokratiska Parti,,Suomen Sosialidemokraattinen Puolue,
FIN-PS,Finland,FIN,PS,Vrais finlandais,Perussuomalaiset,,CRE,Conservateurs et réformistes,CRE,European Conservatives and Reformists,CRE,ENL,Europe of Nations and Freedom,ENL,EXD,Far right,DSV,Right nationalist,,Perussuomalaiset,,Perussuomalaiset,
FRA-AGIR,France,FRA,AGIR,Agir,Agir,,RE,Renew Europe,RE,Renew Europe,RE,,,,LIB,Liberal,,,,Agir - La Droite constructive,,,
FRA-AEI,France,FRA,AEI,Alliance Écologiste Indépendante,Alliance Écologiste Indépendante,Independent Ecological Alliance,VERTS,Verts et ALE,VERTS,Greens/European Free Alliance,Greens/EFA,,,,ECO,Ecologist,,,,Alliance Écologiste Indépendante,,,
FRA-DLF,France,FRA,DLF,Debout la France,Debout la France,,CRE,Conservateurs et réformistes,CRE,European Conservatives and Reformists,CRE,CRE,European Conservatives and Reformists,CRE,EXD,Far right,,,,Debout la France,,,
FRA-EC,France,FRA,EC,En commun,En commun,In Common,RE,Renew Europe,RE,Renew Europe,RE,,,,CEN,Center,GAU,Left,,,,,
FRA-FP,France,FRA,FP,Fédération progressiste,Fédération progressiste,Fédération progressiste,RE,Renew Europe,RE,Renew Europe,RE,,,,CEN,Center,GAU,Left,,,,,
FRA-GRS,France,FRA,GRS,Gauche républicaine et socialiste,Gauche républicaine et socialiste,Gauche républicaine et socialiste,LEFT,Gauche unitaire,GUE,European United Left – Nordic Green Left,GUE/NGL,,,,GAU,Left,,,,Gauche républicaine et socialiste,,,
FRA-GC,France,FRA,GC,Génération citoyens,Génération citoyens,,RE,Renew Europe,RE,Renew Europe,RE,ADLE,Alliance of Liberals and Democrats for Europe,ALDE,CEN,Center,LIB,Liberal,,Génération Citoyens,,,
FRA-GS,France,FRA,GS,Génération.s,Génération.s,,SED,Socialistes et démocrates,SED,Progressive Alliance of Socialists and Democrats,S&D,SED,Progressive Alliance of Socialists and Democrats,S&D,GAU,Left,,,,"Génération.s, le mouvement",,,
FRA-HOR,France,FRA,HOR,Horizons,Horizons,Horizons,RE,Renew Europe,RE,Renew Europe,RE,,,,LIB,Liberal,DRO,Right,,Horizons,,Horizons,
FRA-IND,France,FRA,IND,Indépendants,Indépendants,,PPE,Parti populaire européen,PPE,European People's Party,EPP,PPE,European People's Party,EPP,NC,Unknown,,,,Indépendant,,,
FRA-AVEN,France,FRA,AVEN,L'Avenir français,L'Avenir français,French Future,NC,Groupe inconnu,ID,Identity and Democracy,IL,,,,EXD,Far right,,,,,,L’Avenir Français,
FRA-UPO,France,FRA,UPO,L’Union pour les outremer,L’Union pour les outremer,,LEFT,Gauche unitaire,GUE,European United Left – Nordic Green Left,GUE/NGL,GUE,European United Left – Nordic Green Left,GUE/NGL,EXG,Far left,,,,L'union pour les Outremer,,,
FRA-FI,France,FRA,FI,La France insoumise,La France insoumise,,LEFT,Gauche unitaire,GUE,European United Left – Nordic Green Left,GUE/NGL,GUE,European United Left – Nordic Green Left,GUE/NGL,EXG,Far left,,,,La France Insoumise,,La France Insoumise,
FRA-LREM,France,FRA,LREM,La République en marche / Modem,La République en marche / Modem,,RE,Renew Europe,RE,Renew Europe,RE,ADLE,Alliance of Liberals and Democrats for Europe,ALDE,CEN,Center,LIB,Liberal,,La République en marche,,,
FRA-CENTR,France,FRA,CENTR,Les Centristes,Les centristes,The Center,PPE,Parti populaire européen,PPE,European People's Party,EPP,,,,DRO,Right,CEN,Center,,Les centristes,,,
FRA-EELV,France,FRA,EELV,Les Écologistes,The Ecologists,,VERTS,Verts et ALE,VERTS,Greens/European Free Alliance,Greens/EFA,VERTS,Greens/European Free Alliance,Greens/EFA,ECO,Ecologist,GAU,Left,,Les Écologistes – Europe Écologie Les Verts,Europe Écologie,Europe Écologie - Les Verts,Les Écologistes
FRA-LFL,France,FRA,LFL,Les Français libres,Les Français libres,,NI,Non-inscrits,NI,Non-attached members,NI,ELDD,Europe of Freedom and Direct Democracy,ELDD,EXD,Far right,,,,Les Français Libres,,,
FRA-LP,France,FRA,LP,Les Patriotes,Les Patriotes,,NI,Non-inscrits,NI,Non-attached members,NI,ELDD,Europe of Freedom and Direct Democracy,ELDD,EXD,Far right,,,,Les Patriotes,,,
FRA-LR,France,FRA,LR,Les Républicains,Les Républicains,,PPE,Parti populaire européen,PPE,European People's Party,EPP,PPE,European People's Party,EPP,DRO,Right,,,,Les Républicains,,Les Républicains,
FRA-LRC,France,FRA,LRC,Les Républicains calédoniens,Les Républicains calédoniens,Les Républicains calédoniens,,,,,,,,,DRO,Right,,,,,,,
FRA-LO,France,FRA,LO,Lutte ouvrière,Lutte ouvrière,,NC,Groupe inconnu,NC,Unknown,NC,NC,Unknown,NC,EXG,Far left,,,,nc,,,
FRA-MODEM,France,FRA,MODEM,Modem,Modem,,RE,Renew Europe,RE,Renew Europe,RE,ADLE,Alliance of Liberals and Democrats for Europe,ALDE,CEN,Center,,,,Mouvement Démocrate,,Mouvement Democrate,
FRA-MR,France,FRA,MR,Mouvement radical,Mouvement radical,,RE,Renew Europe,RE,Renew Europe,RE,ADLE,Alliance of Liberals and Democrats for Europe,ALDE,CEN,Center,,,,Mouvement Radical,,,
FRA-MRSL,France,FRA,MRSL,Mouvement radical social-libéral,Mouvement radical social-libéral,,RE,Renew Europe,RE,Renew Europe,RE,ADLE,Alliance of Liberals and Democrats for Europe,ALDE,CEN,Center,,,,Mouvement Radical Social-Libéral,,,
FRA-NPA,France,FRA,NPA,Nouveau parti anticapitaliste,Nouveau parti anticapitaliste,,NI,Non-inscrits,NI,Non-attached members,NI,NI,Non-attached members,NI,EXG,Far left,DSV,Right nationalist,,nc,,,
FRA-DONN,France,FRA,DONN,Nouvelle Donne,Nouvelle Donne,New Deal,SED,Socialistes et démocrates,SED,Progressive Alliance of Socialists and Democrats,S&D,,,,GAU,Left,,,,Nouvelle Donne,,,
FRA-PCF,France,FRA,PCF,Parti communiste,Parti communiste,,LEFT,Gauche unitaire,GUE,European United Left – Nordic Green Left,GUE/NGL,GUE,European United Left – Nordic Green Left,GUE/NGL,EXG,Far left,,,,Front de Gauche,,,
FRA-PR,France,FRA,PR,Parti radical,Parti radical,Radical party,RE,Renew Europe,RE,Renew Europe,RE,,,,CEN,Center,GAU,Left,,Parti radical,,Parti Radical,
FRA-PS,France,FRA,PS,Parti socialiste,Parti socialiste,Parti socialiste,SED,Socialistes et démocrates,SED,Progressive Alliance of Socialists and Democrats,S&D,SED,Progressive Alliance of Socialists and Democrats,S&D,GAU,Left,,,,Parti socialiste,,Parti Socialiste,
FRA-PUBLI,France,FRA,PUBLI,Place publique,Place publique,Place publique,SED,Socialistes et démocrates,SED,Progressive Alliance of Socialists and Democrats,S&D,,,,GAU,Left,,,,Place publique,,Place Publique,
FRA-PRG,France,FRA,PRG,Radicaux de gauche,Radicaux de gauche,,SED,Socialistes et démocrates,SED,Progressive Alliance of Socialists and Democrats,S&D,SED,Progressive Alliance of Socialists and Democrats,S&D,GAU,Left,,,,Les radicaux de Gauche,,,
FRA-RBM,France,FRA,RBM,Rassemblement bleu marine,Rassemblement bleu marine,,NC,Groupe inconnu,ID,Identity and Democracy,IL,ENL,Europe of Nations and Freedom,ENL,EXD,Far right,,,,Rassemblement bleu Marine,,,
FRA-FN,France,FRA,FN,Front national,Front national,,NC,Groupe inconnu,ID,Identity and Democracy,IL,ENL,Europe of Nations and Freedom,ENL,EXD,Far right,,,,Rassemblement national,,,
FRA-RN,France,FRA,RN,Rassemblement national,Rassemblement national,,PPLE,Les Patriotes,ID,Identity and Democracy,IL,ENL,Europe of Nations and Freedom,ENL,EXD,Far right,,,,Front national,,Rassemblement National,
FRA-RECON,France,FRA,RECON,Reconquête !,Reconquête !,Reconquête,NI,Non-inscrits,NI,Non-attached members,NI,NC,Unknown,NC,EXD,Far right,,,,Reconquête!,,Reconquête,
FRA-RPS,France,FRA,RPS,Régions et peuples solidaires,Regions and Peoples with Solidarity,,VERTS,Verts et ALE,VERTS,Greens/European Free Alliance,Greens/EFA,,,,AUT,Others,,,,Régions et Peuples Solidaires,,,
FRA-REN,France,FRA,REN,Renaissance,Renaissance,Renew,RE,Renew Europe,RE,Renew Europe,RE,,,,CEN,Center,,,,Renaissance,Liste Renaissance,Renaissance,
FRA-SE,France,FRA,SE,Sans étiquette,Sans étiquette,,NI,Non-inscrits,NI,Non-attached members,NI,ELDD,Europe of Freedom and Direct Democracy,ELDD,NC,Unknown,,,,Sans étiquette,Sans parti,,
FRA-TDP,France,FRA,TDP,Territoire de progrès,Territoire de progrès,Territories of Progress,RE,Renew Europe,RE,Renew Europe,RE,,,,CEN,Center,GAU,Left,,,,,
FRA-UDI,France,FRA,UDI,Union des démocrates et indépendants,Union des démocrates et indépendants,,RE,Renew Europe,RE,Renew Europe,RE,ADLE,Alliance of Liberals and Democrats for Europe,ALDE,CEN,Center,DRO,Right,,Union des Démocrates et Indépendants,,Union des démocrates et indépendants,
FRA-UPR,France,FRA,UPR,Union populaire républicaine,Union populaire républicaine,,NI,Non-inscrits,NI,Non-attached members,NI,NI,Non-attached members,NI,EXD,Far right,,,,nc,,,
DEU-GRUENE,Germany,DEU,GRUENE,Alliance 90 / Les Verts,Bündnis 90/Die Grünen,,VERTS,Verts et ALE,VERTS,Greens/European Free Alliance,Greens/EFA,VERTS,Greens/European Free Alliance,Greens/EFA,ECO,Ecologist,,,,Bündnis 90/Die Grünen,,Bündnis 90/Die Grünen,
DEU-BD,Germany,DEU,BD,Alliance Allemagne,Bündnis Deutschland,Alliance Germany,CRE,Conservateurs et réformistes,CRE,European Conservatives and Reformists,CRE,,,,DRO,Right,,,,Bündnis Deutschland,,,
DEU-BC,Germany,DEU,BC,Alliance C,Bündnis C,,CRE,Conservateurs et réformistes,CRE,European Conservatives and Reformists,CRE,CRE,European Conservatives and Reformists,CRE,DRO,Right,,,,Bündnis C,,,
DEU-BSW,Germany,DEU,BSW,"Alliance Sahra Wagenknecht – Pour la raison et la justice
",Bündnis Sahra Wagenknecht – Für Vernunft und Gerechtigkeit,Alliance Sahra Wagenknecht – Reason and Justice,LEFT,Gauche unitaire,GUE,European United Left – Nordic Green Left,GUE/NGL,,,,AUT,Others,,,,Bündnis Sahra Wagenknecht – Vernunft und Gerechtigkeit,,Bündnis Sahra Wagenknecht – Für Vernunft und Gerechtigkeit,
DEU-AFD,Germany,DEU,AFD,Alternative pour l’Allemagne,Alternative für Deutschland,,NI,Non-inscrits,NI,Non-attached members,NI,ENL,Europe of Nations and Freedom,ENL,EXD,Far right,DSV,Right nationalist,,Alternative für Deutschland,,Alternative für Deutschland,
DEU-MISC,Germany,DEU,MISC,Autres partis,,Others parties,NC,Groupe inconnu,NC,Unknown,NC,NC,Unknown,NC,NC,Unknown,,,,,,,
DEU-UNION,Germany,DEU,UNION,Chrétiens démocrates,,,PPE,Parti populaire européen,PPE,European People's Party,EPP,PPE,European People's Party,EPP,DRO,Right,,,,nc,,,
DEU-LINKE,Germany,DEU,LINKE,Die Linke,Die Linke,,LEFT,Gauche unitaire,GUE,European United Left – Nordic Green Left,GUE/NGL,GUE,European United Left – Nordic Green Left,GUE/NGL,EXG,Far left,,,,DIE LINKE.,,Die Linke,
DEU-FW,Germany,DEU,FW,Electeurs libres,Freie Wähler,,RE,Renew Europe,RE,Renew Europe,RE,ADLE,Alliance of Liberals and Democrats for Europe,ALDE,NC,Unknown,,,,Freie Wähler,,Freie Wähler,
DEU-IND,Germany,DEU,IND,Indépendants,Independent,,LEFT,Gauche unitaire,GUE,European United Left – Nordic Green Left,GUE/NGL,GUE,European United Left – Nordic Green Left,GUE/NGL,NC,Unknown,,,,Independent,,,
DEU-PARTEI,Germany,DEU,PARTEI,Le PARTI,Die PARTEI,,NI,Non-inscrits,NI,Non-attached members,NI,NI,Non-attached members,NI,NC,Unknown,,,,Die PARTEI,,Die PARTEI,
DEU-DBP,Germany,DEU,DBP,Le Parti bleu,Die blaue Partei,,NC,Groupe inconnu,ID,Identity and Democracy,IL,ENL,Europe of Nations and Freedom,ENL,EXD,Far right,,,,Die blaue Partei,,,
DEU-FAMI,Germany,DEU,FAMI,Parti allemand de la famille,Familien-Partei Deutschlands,Family Party of Germany,CRE,Conservateurs et réformistes,CRE,European Conservatives and Reformists,CRE,,,,DRO,Right,,,,Familien-Partei Deutschlands,,Familien-Partei Deutschlands,
DEU-FAMILI,Germany,DEU,FAMILI,Parti de la famille,Familien Partie Deutschland,Family Party,CRE,Conservateurs et réformistes,CRE,European Conservatives and Reformists,CRE,CRE,European Conservatives and Reformists,CRE,DRO,Right,,,,,,,
DEU-TIER,Germany,DEU,TIER,Parti de protection des animaux,Tierschutzpartei,Human Environment Animal Protection,LEFT,Gauche unitaire,GUE,European United Left – Nordic Green Left,GUE/NGL,GUE,European United Left – Nordic Green Left,GUE/NGL,AUT,Others,,,,Partei Mensch Umwelt Tierschutz,,Partei Mensch Umwelt Tierschutz,
DEU-BASIS,Germany,DEU,BASIS,Parti démocratique de la base,Basisdemokratische Partei Deutschland,Grassroots Democratic Party of Germany,NC,Groupe inconnu,NC,Unknown,NC,NC,Unknown,NC,EXD,Far right,,,,,,Basisdemokratische Partei Deutschland,
DEU-PIRATEN,Germany,DEU,PIRATEN,Parti des pirates,Piratenpartei Deutschland,,VERTS,Verts et ALE,VERTS,Greens/European Free Alliance,Greens/EFA,VERTS,Greens/European Free Alliance,Greens/EFA,AUT,Others,,,,Piratenpartei Deutschland,,Piratenpartei Deutschland,
DEU-Z,Germany,DEU,Z,Parti du centre,Centre Party,Zentrum,NI,Non-inscrits,NI,Non-attached members,NI,,,,CEN,Center,DRO,Right,,Zentrum,,,
DEU-ODP,Germany,DEU,ODP,Parti écologiste-démocrate,Ökologisch-Demokratische Partei,,VERTS,Verts et ALE,VERTS,Greens/European Free Alliance,Greens/EFA,VERTS,Greens/European Free Alliance,Greens/EFA,ECO,Ecologist,DRO,Right,,Ökologisch-Demokratische Partei,,Ökologisch-Demokratische Partei,
DEU-FDP,Germany,DEU,FDP,Parti libéral démocrate,Freie Demokratische Partei,,RE,Renew Europe,RE,Renew Europe,RE,ADLE,Alliance of Liberals and Democrats for Europe,ALDE,LIB,Liberal,,,,Freie Demokratische Partei,,Freie Demokraten,
DEU-NPD,Germany,DEU,NPD,Parti national-démocrate d'Allemagne,Nationaldemokratische Partei Deutschlands,,NI,Non-inscrits,NI,Non-attached members,NI,NI,Non-attached members,NI,EXD,Far right,,,,Nationaldemokratische Partei Deutschlands,,,
DEU-LKR,Germany,DEU,LKR,Parti réformateur libéral-conservateur,Liberal-Konservative Reformer,,CRE,Conservateurs et réformistes,CRE,European Conservatives and Reformists,CRE,CRE,European Conservatives and Reformists,CRE,DRO,Right,LIB,Liberal,,Liberal-Konservative Reformer,,,
DEU-SPD,Germany,DEU,SPD,Parti social-démocrate,Sozialdemokratische Partei Deutschlands,,SED,Socialistes et démocrates,SED,Progressive Alliance of Socialists and Democrats,S&D,SED,Progressive Alliance of Socialists and Democrats,S&D,GAU,Left,,,,Sozialdemokratische Partei Deutschlands,,Sozialdemokratische Partei Deutschlands,
DEU-CDU,Germany,DEU,CDU,Union chrétienne-démocrate,Christlich Demokratische Union Deutschlands,,PPE,Parti populaire européen,PPE,European People's Party,EPP,PPE,European People's Party,EPP,DRO,Right,,,,Christlich Demokratische Union Deutschlands,,Christlich Demokratische Union Deutschlands,
DEU-CSU,Germany,DEU,CSU,Union chrétienne-sociale,Christlich-Soziale Union in Bayern,,PPE,Parti populaire européen,PPE,European People's Party,EPP,PPE,European People's Party,EPP,DRO,Right,,,,Christlich-Soziale Union in Bayern e.V.,,Christlich-Soziale Union in Bayern,
DEU-VOLT,Germany,DEU,VOLT,Volt,Volt,Volt,VERTS,Verts et ALE,VERTS,Greens/European Free Alliance,Greens/EFA,NC,Unknown,NC,AUT,Others,,,,Volt,,Volt Deutschland,
GRC-PE,Greece,GRC,PE,[Parti inconnu],,,NI,Non-inscrits,NI,Non-attached members,NI,NI,Non-attached members,NI,NC,Unknown,,,,nc,,,
GRC-PASOK-KINAL,Greece,GRC,PASOK-KINAL,Alliance PASOK-KINAL,,PASOK-KINAL Alliance,SED,Socialistes et démocrates,SED,Progressive Alliance of Socialists and Democrats,S&D,,,,GAU,Left,,,,PASOK-KINAL,,ΠΑΣΟΚ – Κίνημα Αλλαγής (PASOK-KINAL),
GRC-KA,Greece,GRC,KA,Aube dorée,Popular Association – Golden Dawn,,NI,Non-inscrits,NI,Non-attached members,NI,NI,Non-attached members,NI,EXD,Far right,,,,Popular Association – Golden Dawn,,,
GRC-PE,Greece,GRC,PE,"Cap sur la liberté
",Plefsi Eleftherias,Course of Freedom,NC,Groupe inconnu,NC,Unknown,NC,,,,EXG,Far left,,,,Plefsi Eleftherias,,Πλεύση Ελευθερίας (PE),
GRC-KINAL,Greece,GRC,KINAL,Coalition de la gauche radicale,KINAL/ΚΙΝΑΛ,Coalition of the Radical Left,SED,Socialistes et démocrates,SED,Progressive Alliance of Socialists and Democrats,S&D,GUE,European United Left – Nordic Green Left,GUE/NGL,EXG,Far left,,,,,,,
GRC-MERA25,Greece,GRC,MERA25,Front de réelle désobéissance européenne à l’horizon 2025,Μέτωπο Ευρωπαϊκής Ρεαλιστικής Ανυπακοής,European Realistic Disobedience Front,NC,Groupe inconnu,NC,Unknown,NC,NC,Unknown,NC,EXG,Far left,,,,,,,
GRC-ANEL,Greece,GRC,ANEL,Grecs indépendants,,,NC,Groupe inconnu,NC,Unknown,NC,NC,Unknown,NC,DRO,Others,,,,nc,,,
GRC-IND,Greece,GRC,IND,Indépendants,Independent,Independent,NC,Groupe inconnu,NC,Unknown,NC,,,,AUT,Others,,,,Independent,,,
GRC-POTAMI,Greece,GRC,POTAMI,La rivière,The River,,SED,Socialistes et démocrates,SED,Progressive Alliance of Socialists and Democrats,S&D,SED,Progressive Alliance of Socialists and Democrats,S&D,CEN,Center,LIB,Liberal,,The River,,,
GRC-EL,Greece,GRC,EL,La Solution grecque,Ellinikí Lýsi,Greek Solution,CRE,Conservateurs et réformistes,CRE,European Conservatives and Reformists,CRE,NC,Unknown,NC,EXD,#REF!,,,,,,Ελληνική Λύση (EL),
GRC-AR,Greece,GRC,AR,La Voie alternative,Greece-The Alternative Road,,CRE,Conservateurs et réformistes,CRE,European Conservatives and Reformists,CRE,CRE,European Conservatives and Reformists,CRE,NC,Unknown,,,,Greece-The Alternative Road,,,
GRC-NIKH,Greece,GRC,NIKH,Mouvement démocrate patriote – Victoire,Dimokratikó Patriotikó Kínima “Níki”,Democratic Patriotic Movement “Victory”,NC,Groupe inconnu,NC,Unknown,NC,NC,Unknown,NC,EXD,Far right,,,,Dimokratikó Patriotikó Kínima,,Δημοκρατικό Πατριωτικό Κίνημα - ΝΙΚΗ (Niki),
GRC-DISIKA,Greece,GRC,DISIKA,Mouvement des socialistes démocrates,,,NI,Non-inscrits,NI,Non-attached members,NI,NI,Non-attached members,NI,GAU,Left,,,,nc,,,
GRC-GRXA,Greece,GRC,GRXA,Mouvement pour le changement,,,SED,Socialistes et démocrates,SED,Progressive Alliance of Socialists and Democrats,S&D,SED,Progressive Alliance of Socialists and Democrats,S&D,GAU,Left,,,,nc,,,
GRC-ND,Greece,GRC,ND,Nouvelle démocratie,Nea Demokratia,,PPE,Parti populaire européen,PPE,European People's Party,EPP,PPE,European People's Party,EPP,DRO,Right,,,,Nea Demokratia,,Νέα Δημοκρατία (ND),
GRC-NA,Greece,GRC,NA,Nouvelle gauche,Néa Aristerá,New Left,LEFT,Gauche unitaire,GUE,European United Left – Nordic Green Left,GUE/NGL,NC,Unknown,NC,EXG,Far left,,,,New Left,,Νέα Αριστερά (NA),
GRC-KKE,Greece,GRC,KKE,Parti communiste de Grèce,Communist Party of Greece,,NI,Non-inscrits,NI,Non-attached members,NI,NI,Non-attached members,NI,EXG,Far left,DSV,Right nationalist,,Communist Party of Greece,,Κομμουνιστικό Κόμμα Ελλάδας (KKE),
GRC-PASOK,Greece,GRC,PASOK,Parti socialiste grec,Panhellenic Socialist Movement – Olive Tree,,SED,Socialistes et démocrates,SED,Progressive Alliance of Socialists and Democrats,S&D,SED,Progressive Alliance of Socialists and Democrats,S&D,GAU,Left,,,,Panhellenic Socialist Movement - Olive Tree,,,
GRC-ELLN,Greece,GRC,ELLN,Solution grecque,Ellinikí Lýsi,Greek Solution,CRE,Conservateurs et réformistes,CRE,European Conservatives and Reformists,CRE,,,,EXD,Far right,,,,Elliniki Lusi-Greek Solution,,,
GRC-SYRIZA,Greece,GRC,SYRIZA,Syriza,Coalition of the Radical Left,Syriza,LEFT,Gauche unitaire,GUE,European United Left – Nordic Green Left,GUE/NGL,GUE,European United Left – Nordic Green Left,GUE/NGL,GAU,Left,,,,Coalition of the Radical Left,,Συνασπισμός Ριζοσπαστικής Αριστεράς – Προοδευτική Συμμαχία (SYRIZA),
GRC-EK,Greece,GRC,EK,Union des centristes,,,RE,Renew Europe,RE,Renew Europe,RE,ADLE,Alliance of Liberals and Democrats for Europe,ALDE,CEN,Center,,,,nc,,,
GRC-PATRIE,Greece,GRC,PATRIE,Union patriotique radicale,Patriotic Radical Union (PAT.RI.E.),,NI,Non-inscrits,NI,Non-attached members,NI,NI,Non-attached members,NI,EXD,Far right,,,,Patriotic Radical Union (PAT.RI.E.),,,
GRC-LAE,Greece,GRC,LAE,Unité populaire,Popular Unity,,LEFT,Gauche unitaire,GUE,European United Left – Nordic Green Left,GUE/NGL,GUE,European United Left – Nordic Green Left,GUE/NGL,EXG,Far left,,,,Popular Unity,,,
HUN-DK,Hungary,HUN,DK,Coalition démocratique,Demokratikus Koalíció,,SED,Socialistes et démocrates,SED,Progressive Alliance of Socialists and Democrats,S&D,SED,Progressive Alliance of Socialists and Democrats,S&D,GAU,Left,,,,Demokratikus Koalíció,,Demokratikus Koalíció,
HUN-EK,Hungary,HUN,EK,Communauté d'opportunités,Esély Közösség,Opportunity Community,SED,Socialistes et démocrates,SED,Progressive Alliance of Socialists and Democrats,S&D,,,,AUT,Others,,,,Esély Közösség,,,
HUN-EGYUETT,Hungary,HUN,EGYUETT,Ensemble,,,NI,Non-inscrits,NI,Non-attached members,NI,NI,Non-attached members,NI,CEN,Center,,,,nc,,,
HUN-EPM,Hungary,HUN,EPM,Ensemble,Együtt 2014 – Párbeszéd Magyarországért,,VERTS,Verts et ALE,VERTS,Greens/European Free Alliance,Greens/EFA,VERTS,Greens/European Free Alliance,Greens/EFA,GAU,Left,,,,Együtt 2014 - Párbeszéd Magyarországért,,,
HUN-FID,Hungary,HUN,FID,Fidesz,Fidesz-Magyar Polgári Szövetség,Fidesz,PPLE,Les Patriotes,NI,Non-attached members,NI,PPE,European People's Party,EPP,EXD,Far right,,,,Fidesz-Magyar Polgári Szövetség-Kereszténydemokrata Néppárt,,Fidesz – Magyar Polgári Szövetség,
HUN-JOBBIK,Hungary,HUN,JOBBIK,Jobbik,Jobbik Magyarországért Mozgalom,,NI,Non-inscrits,NI,Non-attached members,NI,NI,Non-attached members,NI,EXD,Far right,DSV,Right nationalist,,Jobbik Magyarországért Mozgalom,Jobbik – Konzervatívok,,
HUN-LMP,Hungary,HUN,LMP,La politique peut être différente,Lehet Más A Politika,,VERTS,Verts et ALE,VERTS,Greens/European Free Alliance,Greens/EFA,VERTS,Greens/European Free Alliance,Greens/EFA,ECO,Ecologist,,,,Lehet Más A Politika,,,
HUN-MM,Hungary,HUN,MM,Momentum,,,RE,Renew Europe,RE,Renew Europe,RE,ADLE,Alliance of Liberals and Democrats for Europe,ALDE,CEN,Center,LIB,Liberal,,Momentum,,Momentum Mozgalom,
HUN-MMM,Hungary,HUN,MMM,Mouvement de la Hongrie pour tous,Mindenki Magyarországa Mozgalom,Everybody's Hungary Movement,PPE,Parti populaire européen,PPE,European People's Party,EPP,NC,Unknown,NC,DRO,Right,,,,,,Mindenki Magyarországa Mozgalom,
HUN-MH,Hungary,HUN,MH,Mouvement Notre Patrie,Mi Hazánk Mozgalom,Our Homeland Movement,ENS,Nations souveraines,NI,Non-attached members,NI,NI,Non-attached members,NI,EXD,Far right,DSV,Right nationalist,,Mi Hazánk Mozgalom,,Mi Hazánk Mozgalom,
HUN-2RK,Hungary,HUN,2RK,Parti de l'ère de la deuxième réforme,Második Reformkor Párt,Second Reform Era Party,NC,Groupe inconnu,NC,Unknown,NC,NC,Unknown,NC,CEN,Center,,,,,,Második Reformkor Párt,
HUN-TISZA,Hungary,HUN,TISZA,Parti du respect et de la liberté,Tisztelet és Szabadság Párt,Respect and Freedom Party,PPE,Parti populaire européen,PPE,European People's Party,EPP,NC,Unknown,NC,AUT,Others,,,,Tisztelet és Szabadság Párt,,Tisztelet és Szabadság,
HUN-MKKP,Hungary,HUN,MKKP,Parti hongrois du chien à deux queues,Magyar Kétfarkú Kutya Párt,,VERTS,Verts et ALE,VERTS,Greens/European Free Alliance,Greens/EFA,NI,Non-attached members,NI,AUT,Others,,,,nc,,Magyar Kétfarkú Kutya Párt,
HUN-KN,Hungary,HUN,KN,Parti populaire démocrate-chrétien,Kereszténydemokrata Néppárt,,PPE,Parti populaire européen,PPE,European People's Party,EPP,PPE,European People's Party,EPP,DRO,Right,,,,Kereszténydemokrata Néppárt,,Kereszténydemokrata Néppárt,
HUN-MSZP,Hungary,HUN,MSZP,Parti socialiste hongrois,Magyar Szocialista Párt,,SED,Socialistes et démocrates,SED,Progressive Alliance of Socialists and Democrats,S&D,SED,Progressive Alliance of Socialists and Democrats,S&D,GAU,Left,,,,Magyar Szocialista Párt,,Magyar Szocialista Párt,
IRL-RI,Ireland,IRL,RI,[Parti inconnu],,,NI,Non-inscrits,NI,Non-attached members,NI,NI,Non-attached members,NI,NC,Unknown,,,,nc,,,
IRL-IA,Ireland,IRL,IA,Alliance indépendante,,,NI,Non-inscrits,NI,Non-attached members,NI,NI,Non-attached members,NI,AUT,Others,,,,nc,,,
IRL-MISC,Ireland,IRL,MISC,Autres partis,,Others parties,NC,Groupe inconnu,NC,Unknown,NC,NC,Unknown,NC,NC,Unknown,,,,,,,
IRL-FF,Ireland,IRL,FF,Fianna Fail,Fianna Fáil Party,,RE,Renew Europe,RE,Renew Europe,RE,ADLE,Alliance of Liberals and Democrats for Europe,ALDE,CEN,Center,DRO,Right,,Fianna Fáil Party,,Fianna Fáil,
IRL-FG,Ireland,IRL,FG,Fine Gael,Fine Gael Party,,PPE,Parti populaire européen,PPE,European People's Party,EPP,PPE,European People's Party,EPP,DRO,Right,,,,Fine Gael Party,,Fine Gael,
IRL-IND,Ireland,IRL,IND,Indépendants,Independents,Independents,NC,Groupe inconnu,NC,Unknown,NC,NC,Unknown,NC,AUT,Others,,,,,,Independents,
IRL-IE_IND,Ireland,IRL,IE_IND,Indépendants et autres,Independents and others,Independents and others,LEFT,Gauche unitaire,GUE,European United Left – Nordic Green Left,GUE/NGL,NC,Unknown,NC,NC,Unknown,,,,Independent,,Independents (IE),
IRL-INDCHG,Ireland,IRL,INDCHG,Indépendants pour le changement,Independents for change,Independents for change,LEFT,Gauche unitaire,GUE,European United Left – Nordic Green Left,GUE/NGL,,,,EXG,Far left,,,,Independents for change,,I4C,
IRL-LAB,Ireland,IRL,LAB,Parti travailliste,,,SED,Socialistes et démocrates,SED,Progressive Alliance of Socialists and Democrats,S&D,SED,Progressive Alliance of Socialists and Democrats,S&D,GAU,Left,,,,Labour Party,,,
IRL-GP,Ireland,IRL,GP,Parti vert,,,VERTS,Verts et ALE,VERTS,Greens/European Free Alliance,Greens/EFA,VERTS,Greens/European Free Alliance,Greens/EFA,ECO,Ecologist,,,,Green Party,,Green Party,
IRL-SF,Ireland,IRL,SF,Sinn Féin,Sinn Féin,,LEFT,Gauche unitaire,GUE,European United Left – Nordic Green Left,GUE/NGL,GUE,European United Left – Nordic Green Left,GUE/NGL,EXG,Far left,,,,Sinn Féin,,Sinn Féin,
IRL-SD,Ireland,IRL,SD,Sociaux-démocrates,,,SED,Socialistes et démocrates,SED,Progressive Alliance of Socialists and Democrats,S&D,NI,Non-attached members,NI,GAU,Left,,,,nc,,Social Democrats,
IRL-SPBP,Ireland,IRL,SPBP,Solidarité - PBP,,,LEFT,Gauche unitaire,GUE,European United Left – Nordic Green Left,GUE/NGL,GUE,European United Left – Nordic Green Left,GUE/NGL,EXG,Far left,,,,nc,,,
ITA-I,Italy,ITA,I,[Parti inconnu],,,NI,Non-inscrits,NI,Non-attached members,NI,NI,Non-attached members,NI,NC,Unknown,,,,nc,,,
ITA-NCDUDC,Italy,ITA,NCDUDC,[Parti inconnu],,,NI,Non-inscrits,NI,Non-attached members,NI,NI,Non-attached members,NI,NC,Unknown,,,,nc,,,
ITA-NCI,Italy,ITA,NCI,[Parti inconnu],,,NI,Non-inscrits,NI,Non-attached members,NI,NI,Non-attached members,NI,NC,Unknown,,,,nc,,,
ITA-AZI,Italy,ITA,AZI,Action,Azione,Action,RE,Renew Europe,RE,Renew Europe,RE,NC,Unknown,NC,GAU,Left,,,,Azione,,Azione,
ITA-AIV,Italy,ITA,AIV,Action – Italia Viva,Azione – Italia Viva,Action – Italia Viva,RE,Renew Europe,RE,Renew Europe,RE,,,,CEN,Center,,,,,,,
ITA-AP,Italy,ITA,AP,Alternative populaire,Alternativa Popolare,,PPE,Parti populaire européen,PPE,European People's Party,EPP,PPE,European People's Party,EPP,DRO,Right,,,,Alternativa Popolare,,,
ITA-MDP,Italy,ITA,MDP,Article 1 - Mouvement démocrate et progressiste,Articolo UNO – Movimento Democratico e Progressista,,SED,Socialistes et démocrates,SED,Progressive Alliance of Socialists and Democrats,S&D,SED,Progressive Alliance of Socialists and Democrats,S&D,GAU,Left,,,,Articolo UNO – Movimento Democratico e Progressista,,,
ITA-CP,Italy,ITA,CP,Coalition populaire,Coalizione Popolare,Popular Coalition,NC,Groupe inconnu,NC,Unknown,NC,NC,Unknown,NC,AUT,Others,,,,,,,
ITA-CER,Italy,ITA,CER,Conservateurs et réformistes,Conservatori e Riformisti,,CRE,Conservateurs et réformistes,CRE,European Conservatives and Reformists,CRE,CRE,European Conservatives and Reformists,CRE,DRO,Right,,,,Conservatori e Riformisti,,,
ITA-DC,Italy,ITA,DC,Démocratie chrétienne,Democrazia Cristiana,Christian Democracy,NI,Non-inscrits,NI,Non-attached members,NI,,,,DRO,Right,,,,Democrazia Cristiana,,,
ITA-FDV,Italy,ITA,FDV,Fédération des verts,Federazione dei Verdi,Federation of the Greens,VERTS,Verts et ALE,VERTS,Greens/European Free Alliance,Greens/EFA,VERTS,Greens/European Free Alliance,Greens/EFA,ECO,Ecologist,,,,,,,
ITA-FI,Italy,ITA,FI,Forza Italia,Forza Italia,,PPE,Parti populaire européen,PPE,European People's Party,EPP,PPE,European People's Party,EPP,DRO,Right,,,,Forza Italia,,Forza Italia,
ITA-FIPDLFI,Italy,ITA,FIPDLFI,Forza Italia,,,PPE,Parti populaire européen,PPE,European People's Party,EPP,PPE,European People's Party,EPP,DRO,Right,,,,nc,,,
ITA-FDI,Italy,ITA,FDI,Frères d’Italie,Fratelli d'Italia,Brothers of Italy,CRE,Conservateurs et réformistes,CRE,European Conservatives and Reformists,CRE,CRE,European Conservatives and Reformists,CRE,EXD,Far right,,,,Fratelli d'Italia,FRATELLI D' ITALIA,Fratelli d’Italia,
ITA-IND,Italy,ITA,IND,Indépendants,Independent,Independent,NC,Groupe inconnu,NC,Unknown,NC,,,,AUT,Others,,,,Independent,,,
ITA-VIVA,Italy,ITA,VIVA,Italia Viva,Italia Viva,Italy Alive,SED,Socialistes et démocrates,SED,Progressive Alliance of Socialists and Democrats,S&D,,,,CEN,Center,,,,Italia Viva – Il Centro,,Italia Viva,
ITA-TSI,Italy,ITA,TSI,L'autre Europe avec Tsipras,Lista Tsipras-L'Altra Europa,,LEFT,Gauche unitaire,GUE,European United Left – Nordic Green Left,GUE/NGL,GUE,European United Left – Nordic Green Left,GUE/NGL,EXG,Far left,,,,Lista Tsipras-L'Altra Europa,,,
ITA-EV,Italy,ITA,EV,L’Europe verte,Europa Verde,Green Europe,VERTS,Verts et ALE,VERTS,Greens/European Free Alliance,Greens/EFA,VERTS,Greens/European Free Alliance,Greens/EFA,ECO,Ecologist,,,,Europa Verde,,Europa Verde,
ITA-IDV,Italy,ITA,IDV,L’Italie des Valeurs,,,RE,Renew Europe,RE,Renew Europe,RE,ADLE,Alliance of Liberals and Democrats for Europe,ALDE,CEN,Center,GAU,Left,,nc,,,
ITA-LADESTRA,Italy,ITA,LADESTRA,La Droite,,,NI,Non-inscrits,NI,Non-attached members,NI,NI,Non-attached members,NI,DRO,Right,DSV,Right nationalist,,nc,,,
ITA-LS,Italy,ITA,LS,La Gauche,La Sinistra,The Left,LEFT,Gauche unitaire,GUE,European United Left – Nordic Green Left,GUE/NGL,GUE,European United Left – Nordic Green Left,GUE/NGL,EXG,Far left,,,,,,,
ITA-SI,Italy,ITA,SI,La Gauche italienne,Sinistra Italiana,,LEFT,Gauche unitaire,GUE,European United Left – Nordic Green Left,GUE/NGL,GUE,European United Left – Nordic Green Left,GUE/NGL,GAU,Left,ECO,Ecologist,,Sinistra Italiana,,Sinistra Italiana,
ITA-LN,Italy,ITA,LN,La Ligue,Lega,,PPLE,Les Patriotes,ID,Identity and Democracy,IL,ENL,Europe of Nations and Freedom,ENL,EXD,Far right,DSV,Right nationalist,,Lega,Lega Nord,Lega,
ITA-SUD,Italy,ITA,SUD,Le Sud dans la tête,Sud in Testa,South in the Head,NI,Non-inscrits,NI,Non-attached members,NI,NC,Unknown,NC,AUT,Others,,,,Sud in Testa,,,
ITA-LEU,Italy,ITA,LEU,Libres et égaux,,,SED,Socialistes et démocrates,SED,Progressive Alliance of Socialists and Democrats,S&D,SED,Progressive Alliance of Socialists and Democrats,S&D,GAU,Left,,,,nc,,,
ITA-M5S,Italy,ITA,M5S,Mouvement 5 étoiles,Movimento 5 Stelle,,NI,Non-inscrits,NI,Non-attached members,NI,ELDD,Europe of Freedom and Direct Democracy,ELDD,AUT,Others,DSV,Right nationalist,,Movimento 5 Stelle,,Movimento 5 Stelle,
ITA-SE,Italy,ITA,SE,Nous sommes européenns,Siamo Europei,We are Europeans,SED,Socialistes et démocrates,SED,Progressive Alliance of Socialists and Democrats,S&D,,,,GAU,Left,,,,Siamo Europei,,,
ITA-NM,Italy,ITA,NM,"Nous, modérés",Noi moderati,Us Moderates,NC,Groupe inconnu,NC,Unknown,NC,NC,Unknown,NC,CEN,Center,DRO,Right,,,,,
ITA-PD,Italy,ITA,PD,Parti démocrate,Partito Democratico,,SED,Socialistes et démocrates,SED,Progressive Alliance of Socialists and Democrats,S&D,SED,Progressive Alliance of Socialists and Democrats,S&D,GAU,Left,CEN,Center,,Partito Democratico,,Partito Democratico,
ITA-SV,Italy,ITA,SV,Parti populaire sud-tyrolien,Südtiroler Volkspartei,,PPE,Parti populaire européen,PPE,European People's Party,EPP,PPE,European People's Party,EPP,DRO,Right,,,,Südtiroler Volkspartei,,Südtiroler Volkspartei,
ITA-PE,Italy,ITA,PE,Plus d'Europe,Più Europa,More Europe,RE,Renew Europe,RE,Renew Europe,RE,,,,CEN,Center,,,,,,Più Europa,
ITA-E,Italy,ITA,E,Plus d’Europe,,,NI,Non-inscrits,NI,Non-attached members,NI,NI,Non-attached members,NI,CEN,Center,LIB,Liberal,,nc,,,
ITA-PER,Italy,ITA,PER,"Populaires, européens et réformateurs","Popolari Europeisti Riformatori
",Populars Europeanists Reformers,RE,Renew Europe,RE,Renew Europe,RE,,,,CEN,Center,,,,,,Popolari Europeisti Riformatori,
ITA-PAP,Italy,ITA,PAP,Pouvoir au peuple,Potere al Popolo,Power to the People,LEFT,Gauche unitaire,GUE,European United Left – Nordic Green Left,GUE/NGL,GUE,European United Left – Nordic Green Left,GUE/NGL,EXG,Far left,,,,,,,
ITA-UDC,Italy,ITA,UDC,Union du centre,Unione di Centro,,PPE,Parti populaire européen,PPE,European People's Party,EPP,PPE,European People's Party,EPP,DRO,Right,CEN,Center,,Unione di Centro,,,
LVA-KPV,Latvia,LVA,KPV,À qui appartient l’État ?,,,NI,Non-inscrits,NI,Non-attached members,NI,NI,Non-attached members,NI,DRO,Right,AUT,Others,,nc,,,
LVA-LNNK,Latvia,LVA,LNNK,Alliance “Tout pour la Lettonie” et “Mère patrie et liberté LNNK”,"Nacionālā apvienība ""Visu Latvijai!""-""Tēvzemei un Brīvībai/LNNK""","National Alliance ""For All Latvia!"" - ""Fatherland and Freedom / LNNK""",CRE,Conservateurs et réformistes,CRE,European Conservatives and Reformists,CRE,CRE,European Conservatives and Reformists,CRE,NC,Unknown,,,,"Nacionālā apvienība ""Visu Latvijai!""-""Tēvzemei un Brīvībai/LNNK""",,,
LVA-NATA,Latvia,LVA,NATA,Alliance nationale,Nacionālā Apvienība,National Alliance,CRE,Conservateurs et réformistes,CRE,European Conservatives and Reformists,CRE,CRE,European Conservatives and Reformists,CRE,DRO,Right,EXD,Far right,,nc,,Nacionālā Apvienība,
LVA-LRA,Latvia,LVA,LRA,Association lettonne des régions,,,PPE,Parti populaire européen,PPE,European People's Party,EPP,NI,Non-attached members,NI,CEN,Center,,,,nc,,Latvijas Reģionu Apvienība,
LVA-COAL-AP,Latvia,LVA,COAL-AP,Coalition AP!,Latvijas attīstībai + Par!,Coalition AP!,RE,Renew Europe,RE,Renew Europe,RE,NC,Unknown,NC,AUT,Others,,,,Attīstībai/Par!,,,
LVA-COAL-NA,Latvia,LVA,COAL-NA,Coalition nationale,Tēvzemei un Brīvībai/LNNK + Visu Latvijai!,National Coalition,CRE,Conservateurs et réformistes,CRE,European Conservatives and Reformists,CRE,CRE,European Conservatives and Reformists,CRE,AUT,Others,,,,,,,
LVA-LA,Latvia,LVA,LA,Développement letton,Latvijas attīstībai,For Latvia's Development,RE,Renew Europe,RE,Renew Europe,RE,NC,Unknown,NC,LIB,Liberal,,,,,,Latvijas attīstībai,
LVA-NSL,Latvia,LVA,NSL,Du cœur pour la Lettonie,,,NI,Non-inscrits,NI,Non-attached members,NI,NI,Non-attached members,NI,DRO,Right,,,,nc,,,
LVA-GKR,Latvia,LVA,GKR,Honneur de servir Riga !,Gods kalpot Rīgai,Honor to serve Riga,SED,Socialistes et démocrates,SED,Progressive Alliance of Socialists and Democrats,S&D,,,,AUT,Others,,,,Gods kalpot Rīgai,,,
LVA-PRO,Latvia,LVA,PRO,Les Progressifs,The Progressives,Progresīvie,VERTS,Verts et ALE,VERTS,Greens/European Free Alliance,Greens/EFA,SED,Progressive Alliance of Socialists and Democrats,S&D,GAU,Left,,,,Progresīvie,,Progresīvie,
LVA-LPV,Latvia,LVA,LPV,Lettonie d'abord,Latvija prēmų mēlā,Latvia First,PPLE,Les Patriotes,NI,Non-attached members,NI,,,,NC,Unknown,,,,Latvija pirmajā vietā,,Latvija pirmajā vietā,
LVA-AS,Latvia,LVA,AS,Liste unie,Apvienotais saraksts,United List,CRE,Conservateurs et réformistes,,,,,,,DRO,Right,,,,"Nacionālā apvienība ""Visu Latvijai!""-""Tēvzemei un Brīvībai/LNNK""",,,
LVA-PAR,Latvia,LVA,PAR,Mouvement pour !,,,NI,Non-inscrits,NI,Non-attached members,NI,NI,Non-attached members,NI,LIB,Liberal,CEN,Center,,nc,,,
LVA-JKP,Latvia,LVA,JKP,Nouveau parti conservateur,,,NI,Non-inscrits,NI,Non-attached members,NI,NI,Non-attached members,NI,DRO,Right,,,,nc,,,
LVA-JV,Latvia,LVA,JV,Nouvelle alliance,Jaunā Vienotība,New Unity,PPE,Parti populaire européen,PPE,European People's Party,EPP,PPE,European People's Party,EPP,DRO,Right,,,,Jaunā Vienotība,,,
LVA-JS,Latvia,LVA,JS,Nouvelle Harmonie,Jaunā Saskaņa,New Harmony,NC,Groupe inconnu,NC,Unknown,NC,NC,Unknown,NC,NC,Unknown,,,,,,,
LVA-SDPS,Latvia,LVA,SDPS,Parti social-démocrate Harmonie,“Saskaņa” sociāldemokrātiskā partija,Social Democratic Party “Harmony”,SED,Socialistes et démocrates,SED,Progressive Alliance of Socialists and Democrats,S&D,SED,Progressive Alliance of Socialists and Democrats,S&D,GAU,Left,CEN,Center,,"""Saskaņa"" sociāldemokrātiskā partija",,Sociāldemokrātiskā Partija “Saskaņa”,
LVA-S,Latvia,LVA,S,Pour la stabilité !,Stabilitātei!,For Stability!,NC,Groupe inconnu,NC,Unknown,NC,NC,Unknown,NC,EXD,Far right,,,,,,Stabilitātei!,
LVA-LZS,Latvia,LVA,LZS,Union des paysants de Lettonie,Latvijas Zemnieku savienība,Latvian Farmers’ Union,RE,Renew Europe,RE,Renew Europe,RE,NC,Unknown,NC,CEN,Center,DRO,Right,,,,Latvijas Zemnieku savienība,
LVA-ZZS,Latvia,LVA,ZZS,Union des Verts et des Paysans,Zaļo un Zemnieku savienība,,RE,Renew Europe,RE,Renew Europe,RE,ADLE,Alliance of Liberals and Democrats for Europe,ALDE,CEN,Center,ECO,Ecologist,,Zaļo un Zemnieku savienība,,,
LVA-LKS,Latvia,LVA,LKS,Union russe de Lettonie,Latvijas Krievu savienība,,VERTS,Verts et ALE,VERTS,Greens/European Free Alliance,Greens/EFA,VERTS,Greens/European Free Alliance,Greens/EFA,AUT,Others,AUT,Others,,Latvijas Krievu savienība,,,
LVA-V,Latvia,LVA,V,Unité,Vienotība,Unity,PPE,Parti populaire européen,PPE,European People's Party,EPP,PPE,European People's Party,EPP,DRO,Right,,,,"Partija ""VIENOTĪBA""",,Vienotība,
LTU-NA,Lithuania,LTU,NA,Alliance nationale,Nacionalinis susivienijimas,National Alliance,NI,Non-inscrits,NI,Non-attached members,NI,,,,EXD,Far right,,,,,,NA,
LTU-VKMA-MT,Lithuania,LTU,VKMA-MT,Comité électoral public “Aušros Maldeikienės”,Visuomeninis rinkimų komitetas „Aušros Maldeikienės traukinys”,,PPE,Parti populaire européen,PPE,European People's Party,EPP,NC,Unknown,NC,AUT,Others,,,,,,,
LTU-IND,Lithuania,LTU,IND,Indépendants,Independent,Independent,NC,Groupe inconnu,NC,Unknown,NC,,,,AUT,Others,,,,Independent,,,
LTU-DK,Lithuania,LTU,DK,La voie du courage,,,NI,Non-inscrits,NI,Non-attached members,NI,NI,Non-attached members,NI,AUT,Others,,,,nc,,,
LTU-LRLS,Lithuania,LTU,LRLS,Mouvement libéral,Lietuvos Respublikos liberalų sąjūdis,,RE,Renew Europe,RE,Renew Europe,RE,ADLE,Alliance of Liberals and Democrats for Europe,ALDE,CEN,Center,LIB,Liberal,,Liberalų sąjūdis,,Lietuvos Respublikos liberalų sąjūdis,
LTU-LS,Lithuania,LTU,LS,Mouvement libéral,Liberalų sąjūdis,Liberals' Movement,RE,Renew Europe,RE,Renew Europe,RE,,,,CEN,Center,DRO,Right,,,,,
LTU-TT,Lithuania,LTU,TT,Ordre et Justice,Partija Tvarka ir teisingumas,,NI,Non-inscrits,NI,Non-attached members,NI,ELDD,Europe of Freedom and Direct Democracy,ELDD,EXD,Far right,DSV,Right nationalist,,Partija Tvarka ir teisingumas,,,
LTU-LP,Lithuania,LTU,LP,Parti de la liberté,Laisvės partija,Freedom Party,NC,Groupe inconnu,NC,Unknown,NC,NC,Unknown,NC,CEN,Center,,,,Laisvės partija,,Laisvės partija,
LTU-LRP,Lithuania,LTU,LRP,Parti des régions lituaniennes,Lietuvos regionų partija,Lithuanian Regions Party,SED,Socialistes et démocrates,SED,Progressive Alliance of Socialists and Democrats,S&D,NC,Unknown,NC,GAU,Left,,,,,,Lietuvos regionų partija,
LTU-DP,Lithuania,LTU,DP,Parti du travail,Darbo partija,,RE,Renew Europe,RE,Renew Europe,RE,ADLE,Alliance of Liberals and Democrats for Europe,ALDE,CEN,Center,,,,Darbo partija,,Darbo partija,
LTU-LCP,Lithuania,LTU,LCP,Parti lituanien du centre,Lietuvos Centro Partija,Lithuanian Centre Party,NC,Groupe inconnu,NC,Unknown,NC,NC,Unknown,NC,LIB,Liberal,,,,Tautos ir teisingumo sąjunga,,,
LTU-LSDP,Lithuania,LTU,LSDP,Parti social-démocrate de Lituanie,Lietuvos socialdemokratų partija,,SED,Socialistes et démocrates,SED,Progressive Alliance of Socialists and Democrats,S&D,SED,Progressive Alliance of Socialists and Democrats,S&D,GAU,Left,,,,Lietuvos socialdemokratų partija,,Lietuvos socialdemokratų partija,
LTU-LSDDP,Lithuania,LTU,LSDDP,Parti travailliste social-démocrate de Lituanie,,,NI,Non-inscrits,NI,Non-attached members,NI,NI,Non-attached members,NI,GAU,Left,CEN,Center,,nc,,,
LTU-DSVL,Lithuania,LTU,DSVL,Union des démocrates “Pour la Lituanie”,Demokratų sąjunga “Vardan Lietuvos”,Union of Democrats “For Lithuania”,VERTS,Verts et ALE,VERTS,Greens/European Free Alliance,Greens/EFA,,,,CEN,Center,,,,Demokratų sąjunga „Vardan Lietuvos“,,Demokratų sąjunga „Vardan Lietuvos“,
LTU-LVZS,Lithuania,LTU,LVZS,Union populaire agraire lituanienne,Lietuvos valstiečių ir žaliųjų sąjunga,,VERTS,Verts et ALE,VERTS,Greens/European Free Alliance,Greens/EFA,VERTS,Greens/European Free Alliance,Greens/EFA,ECO,Ecologist,CEN,Center,,Lietuvos valstiečių ir žaliųjų sąjunga,,Lietuvos valstiečių ir žaliųjų sąjunga,
LTU-LLRA,Lithuania,LTU,LLRA,Union populaire des Polonais de Lituanie,Lietuvos lenkų rinkimų akcija – Krikščioniškų šeimų sąjunga,,CRE,Conservateurs et réformistes,CRE,European Conservatives and Reformists,CRE,CRE,European Conservatives and Reformists,CRE,AUT,Others,,,,Lietuvos lenkų rinkimų akcija – Krikščioniškų šeimų sąjunga,,,
LTU-TSKD,Lithuania,LTU,TSKD,Union pour la Patrie,Tėvynės sąjunga-Lietuvos krikščionys demokratai,,PPE,Parti populaire européen,PPE,European People's Party,EPP,PPE,European People's Party,EPP,DRO,Right,,,,Tėvynės sąjunga-Lietuvos krikščionys demokratai,,Tėvynės sąjunga – Lietuvos krikščionys demokratai,
LUX-DG,Luxembourg,LUX,DG,Déi Gréng - Les Verts,Déi Gréng – Les Verts,,VERTS,Verts et ALE,VERTS,Greens/European Free Alliance,Greens/EFA,VERTS,Greens/European Free Alliance,Greens/EFA,ECO,Ecologist,,,,Déi Gréng - Les Verts,,,
LUX-DL,Luxembourg,LUX,DL,La gauche,,,LEFT,Gauche unitaire,GUE,European United Left – Nordic Green Left,GUE/NGL,GUE,European United Left – Nordic Green Left,GUE/NGL,EXG,Far left,,,,nc,,,
LUX-CSV,Luxembourg,LUX,CSV,Parti chrétien social luxembourgeois,Parti chrétien social luxembourgeois,,PPE,Parti populaire européen,PPE,European People's Party,EPP,PPE,European People's Party,EPP,DRO,Right,,,,Parti chrétien social luxembourgeois,,Chrëschtlech-Sozial Vollekspartei,
LUX-DP,Luxembourg,LUX,DP,Parti démocratique,Parti démocratique,,RE,Renew Europe,RE,Renew Europe,RE,ADLE,Alliance of Liberals and Democrats for Europe,ALDE,LIB,Liberal,CEN,Center,,Parti démocratique,,Demokratesch Partei,
LUX-LSAP,Luxembourg,LUX,LSAP,Parti ouvrier socialiste luxembourgeois,Parti ouvrier socialiste luxembourgeois,,SED,Socialistes et démocrates,SED,Progressive Alliance of Socialists and Democrats,S&D,SED,Progressive Alliance of Socialists and Democrats,S&D,GAU,Left,,,,Parti ouvrier socialiste luxembourgeois,,Lëtzebuerger Sozialistesch Aarbechterpartei,
LUX-ADR,Luxembourg,LUX,ADR,Parti réformiste d’alternative démocratique,,,CRE,Conservateurs et réformistes,CRE,European Conservatives and Reformists,CRE,CRE,European Conservatives and Reformists,CRE,DRO,Right,DSV,Right nationalist,,Alternativ Demokratesch Reformpartei,,,
MLT-AD,Malta,MLT,AD,Alterntive démocratique,,,VERTS,Verts et ALE,VERTS,Greens/European Free Alliance,Greens/EFA,VERTS,Greens/European Free Alliance,Greens/EFA,ECO,Ecologist,,,,nc,,,
MLT-MPM,Malta,MLT,MPM,Mouvement des Patriotes maltais,,,NC,Groupe inconnu,ID,Identity and Democracy,IL,ENL,Europe of Nations and Freedom,ENL,EXD,Far right,,,,nc,,,
MLT-IE,Malta,MLT,IE,Moviment Patrijotti Maltin,,Imperium Europa,NC,Groupe inconnu,NC,Unknown,NC,NC,Unknown,NC,EXD,Far right,,,,,,,
MLT-PD,Malta,MLT,PD,Parti démocratique,,,RE,Renew Europe,RE,Renew Europe,RE,ADLE,Alliance of Liberals and Democrats for Europe,ALDE,CEN,Center,,,,nc,,,
MLT-PN,Malta,MLT,PN,Parti national,Partit Nazzjonalista,,PPE,Parti populaire européen,PPE,European People's Party,EPP,PPE,European People's Party,EPP,DRO,Right,,,,Partit Nazzjonalista,,Partit Nazzjonalista,
MLT-PL,Malta,MLT,PL,Parti travailliste,Partit Laburista,,SED,Socialistes et démocrates,SED,Progressive Alliance of Socialists and Democrats,S&D,SED,Progressive Alliance of Socialists and Democrats,S&D,GAU,Left,,,,Partit Laburista,,Partit Laburista,
NLD-P50PLUS,Netherlands,NLD,P50PLUS,50 plus,,,PPE,Parti populaire européen,PPE,European People's Party,EPP,NI,Non-attached members,NI,AUT,Others,,,,50 PLUS,,,
NLD-D66,Netherlands,NLD,D66,Démocrates 66,Democraten 66,,RE,Renew Europe,RE,Renew Europe,RE,ADLE,Alliance of Liberals and Democrats for Europe,ALDE,LIB,Liberal,ECO,Ecologist,,Democraten 66,,Democraten 66,
NLD-DENK,Netherlands,NLD,DENK,Denk,,,NI,Non-inscrits,NI,Non-attached members,NI,NI,Non-attached members,NI,AUT,Others,,,,nc,,,
NLD-FVD,Netherlands,NLD,FVD,Forum pour la démocratie,Forum voor Democratie,Forum for Democracy,NI,Non-inscrits,NI,Non-attached members,NI,CRE,European Conservatives and Reformists,CRE,EXD,Far right,DSV,Right nationalist,,Forum voor Democratie,,Forum voor Democratie,
NLD-IND,Netherlands,NLD,IND,Indépendants,Independent,Independants,NI,Non-inscrits,NI,Non-attached members,NI,NI,Non-attached members,NI,AUT,Others,,,,Independent,,,
NLD-JA21,Netherlands,NLD,JA21,JA21,JA21,JA21,CRE,Conservateurs et réformistes,CRE,European Conservatives and Reformists,CRE,NC,Unknown,NC,EXD,Far right,,,,JA21,,,
NLD-CDA,Netherlands,NLD,CDA,L'Appel chrétien-démocrate,Christen Democratisch Appèl,,PPE,Parti populaire européen,PPE,European People's Party,EPP,PPE,European People's Party,EPP,DRO,Right,LIB,Liberal,,Christen Democratisch Appèl,,Christen-Democratisch Appèl,
NLD-GL,Netherlands,NLD,GL,La Gauche verte,GroenLinks,GroenLinks,VERTS,Verts et ALE,VERTS,Greens/European Free Alliance,Greens/EFA,VERTS,Greens/European Free Alliance,Greens/EFA,ECO,Ecologist,GAU,Left,,GroenLinks,,GroenLinks,
NLD-PVDD,Netherlands,NLD,PVDD,Le parti pour les animaux,Partij voor de Dieren,Party for the Animals,LEFT,Gauche unitaire,GUE,European United Left – Nordic Green Left,GUE/NGL,GUE,European United Left – Nordic Green Left,GUE/NGL,AUT,Others,ECO,Ecologist,,Partij voor de Dieren,,Partij voor de Dieren,
NLD-BBB,Netherlands,NLD,BBB,Mouvement agriculteur-citoyen,BoerBurgerBeweging,,PPE,Parti populaire européen,PPE,European People's Party,EPP,NC,Unknown,NC,AUT,Others,,,,BoerBurgerBeweging,,BoerBurgerBeweging,
NLD-NSC,Netherlands,NLD,NSC,Nouveau contrat social,Nieuw Sociaal Contract,New Social Contract,PPE,Parti populaire européen,PPE,European People's Party,EPP,NC,Unknown,NC,DRO,Right,CEN,Center,,Nieuw Sociaal Contract,,Nieuw Sociaal Contract,
NLD-SGP,Netherlands,NLD,SGP,Parti politique réformé,Staatkundig Gereformeerde Partij,,NC,Groupe inconnu,NC,Unknown,NC,CRE,European Conservatives and Reformists,CRE,EXD,Far right,,,,Staatkundig Gereformeerde Partij,"Reformed Political Party
",Staatkundig Gereformeerde Partij,
NLD-VVD,Netherlands,NLD,VVD,Parti populaire libéral et démocrate,Volkspartij voor Vrijheid en Democratie,,RE,Renew Europe,RE,Renew Europe,RE,ADLE,Alliance of Liberals and Democrats for Europe,ALDE,LIB,Liberal,LIB,Liberal,,Volkspartij voor Vrijheid en Democratie,,Volkspartij voor Vrijheid en Democratie,
NLD-PVV,Netherlands,NLD,PVV,Parti pour la Liberté,Partij voor de Vrijheid,,PPLE,Les Patriotes,ID,Identity and Democracy,IL,ENL,Europe of Nations and Freedom,ENL,EXD,Far right,DSV,Right nationalist,,Partij voor de Vrijheid,,Partij voor de Vrijheid,
NLD-SP,Netherlands,NLD,SP,Parti socialiste,Socialistische Partij,,LEFT,Gauche unitaire,GUE,European United Left – Nordic Green Left,GUE/NGL,GUE,European United Left – Nordic Green Left,GUE/NGL,GAU,Left,EXG,Far left,,Socialistische Partij,,Socialistische Partij,
NLD-PVDA,Netherlands,NLD,PVDA,Parti travailliste,Partij van de Arbeid,,SED,Socialistes et démocrates,SED,Progressive Alliance of Socialists and Democrats,S&D,SED,Progressive Alliance of Socialists and Democrats,S&D,GAU,Left,CEN,Center,,Partij van de Arbeid,,Partij van de Arbeid,
NLD-MDD,Netherlands,NLD,MDD,Plus de démocratie,Meer Democratie,More Democraty,CRE,Conservateurs et réformistes,CRE,European Conservatives and Reformists,CRE,,,,DRO,Right,,,,Meer Directe Democratie,,,
NLD-CU,Netherlands,NLD,CU,Union chrétienne,ChristenUnie,,PPE,Parti populaire européen,PPE,European People's Party,EPP,PPE,European People's Party,EPP,DRO,Right,,,,ChristenUnie,,,
NLD-CU-SGP,Netherlands,NLD,CU-SGP,Union chrétienne - Parti politique réformé,ChristenUnie - Staatkundig Gereformeerde Partij,Christian Union - Reformed Political Party,NC,Groupe inconnu,NC,Unknown,NC,NC,Unknown,NC,DRO,Right,,,,,,,
NLD-VOLT,Netherlands,NLD,VOLT,Volt Pays-Bas,Volt Nederland,Volt Netherlands,VERTS,Verts et ALE,VERTS,Greens/European Free Alliance,Greens/EFA,NC,Unknown,NC,AUT,Others,,,,Volt,,Volt Nederland,
POL-AGRO,Poland,POL,AGRO,Agrounia,Agrounia,Agrounia,NC,Groupe inconnu,NC,Unknown,NC,NC,Unknown,NC,GAU,Left,,,,,,,
POL-SLD,Poland,POL,SLD,Alliance de la gauche démocratique,Sojusz Lewicy Demokratycznej,,SED,Socialistes et démocrates,SED,Progressive Alliance of Socialists and Democrats,S&D,SED,Progressive Alliance of Socialists and Democrats,S&D,GAU,Left,,,,Sojusz Lewicy Demokratycznej,,,
POL-SLD-UP,Poland,POL,SLD-UP,Alliance de la gauche démocratique - Union du travail,Sojusz Lewicy Demokratycznej – Unia Pracy,,SED,Socialistes et démocrates,SED,Progressive Alliance of Socialists and Democrats,S&D,SED,Progressive Alliance of Socialists and Democrats,S&D,GAU,Left,,,,Sojusz Lewicy Demokratycznej - Unia Pracy,,,
POL-KE,Poland,POL,KE,Coalition pour l’Europe,Koalicja Europejska,European Coalition,NC,Groupe inconnu,NC,Unknown,NC,NC,Unknown,NC,CEN,Center,,,,,,,
POL-KKP,Poland,POL,KKP,Confédération de la couronne polonaise,Konfederacja Korony Polskiej,Confederation of the Polish Crown,NI,Non-inscrits,ID,Identity and Democracy,IL,NC,Unknown,NC,EXD,Far right,,,,Konfederacja Korony Polskiej,,Konfederacja Korony Polskiej,
POL-KO,Poland,POL,KO,Confédération Korwin-Braun-Liroy-Narodowcy,Konfederacja Korwin-Braun-Liroy-Narodowcy,,NC,Groupe inconnu,NC,Unknown,NC,NC,Unknown,NC,NC,Unknown,,,,,,,
POL-KNP,Poland,POL,KNP,Congrès de la Nouvelle droite,Kongres Nowej Prawicy,,NC,Groupe inconnu,ID,Identity and Democracy,IL,ENL,Europe of Nations and Freedom,ENL,EXD,Far right,DSV,Right nationalist,,Kongres Nowej Prawicy,,,
POL-PIS,Poland,POL,PIS,Droit et justice,Prawo i Sprawiedliwość,,CRE,Conservateurs et réformistes,CRE,European Conservatives and Reformists,CRE,CRE,European Conservatives and Reformists,CRE,EXD,Far right,EXD,Far right,,Prawo i Sprawiedliwość,,Prawo i Sprawiedliwość,
POL-PRG,Poland,POL,PRG,Droite de la République,Prawica Rzeczypospolitej,,CRE,Conservateurs et réformistes,CRE,European Conservatives and Reformists,CRE,CRE,European Conservatives and Reformists,CRE,EXD,Far right,,,,Prawica Rzeczypospolitej,,,
POL-RAZ,Poland,POL,RAZ,Ensemble,Partia Razem,,NC,Groupe inconnu,NC,Unknown,NC,NC,Unknown,NC,GAU,Left,,,,nc,,,
POL-IND,Poland,POL,IND,Indépendants,Niezależny,,CRE,Conservateurs et réformistes,CRE,European Conservatives and Reformists,CRE,CRE,European Conservatives and Reformists,CRE,NC,Unknown,,,,Independent,Niezależny,,
POL-IPL,Poland,POL,IPL,Initiative polonaise,Inicjatywa Polska,Inicjatywa Polska,PPE,Parti populaire européen,NI,Non-attached members,NI,NC,Unknown,NC,DRO,Right,,,,Inicjatywa Polska,,Inicjatywa Polska,
POL-KUKIZ15,Poland,POL,KUKIZ15,Kukiz 15,,,NI,Non-inscrits,NI,Non-attached members,NI,ELDD,Europe of Freedom and Direct Democracy,ELDD,DRO,Right,AUT,Others,,nc,,Kukiz'15,
POL-LEWICA,Poland,POL,LEWICA,La Gauche,Lewica,The Left,NC,Groupe inconnu,NC,Unknown,NC,NC,Unknown,NC,GAU,Left,,,,,,,
POL-LR,Poland,POL,LR,La Gauche ensemble,Lewica Razem,Left Together,NC,Groupe inconnu,NC,Unknown,NC,NC,Unknown,NC,GAU,Left,,,,,,Lewica Razem,Razem
POL-REP,Poland,POL,REP,Les Républicains,Partia Republikańska,The Republicans,CRE,Conservateurs et réformistes,CRE,European Conservatives and Reformists,CRE,,,,DRO,Right,,,,Partia Republikańska,,,
POL-PZ,Poland,POL,PZ,Les Verts,The Greens,Zieloni,VERTS,Verts et ALE,VERTS,Greens/European Free Alliance,Greens/EFA,NC,Unknown,NC,ECO,Ecologist,,,,,,Partia Zieloni,Zieloni
POL-LIB,Poland,POL,LIB,Liberté,,,NI,Non-inscrits,NI,Non-attached members,NI,NI,Non-attached members,NI,EXD,Far right,DSV,Right nationalist,,nc,,,
POL-WOL,Poland,POL,WOL,Liberté,Wolność,,NI,Non-inscrits,NI,Non-attached members,NI,NI,Non-attached members,NI,DRO,Right,,,,Wolność,,,
POL-N,Poland,POL,N,Moderne,Nowoczesna,Modern,RE,Renew Europe,RE,Renew Europe,RE,NI,Non-attached members,NI,DRO,Right,LIB,Liberal,,nc,,.Nowoczesna,
POL-RN,Poland,POL,RN,Mouvement national,Ruch Narodowy,National Movement,NI,Non-inscrits,NI,Non-attached members,NI,NC,Unknown,NC,EXD,Far right,,,,,,Ruch Narodowy,
POL-RAS,Poland,POL,RAS,Mouvement pour l'autonomie de la Silésie,Ruch Autonomii Śląska,"Silesian Autonomy Movemen
",VERTS,Verts et ALE,VERTS,Greens/European Free Alliance,Greens/EFA,NC,Unknown,NC,AUT,Others,,,,,,,
POL-BEZA,Poland,POL,BEZA,Non-partisans,Bezpartyjna,,SED,Socialistes et démocrates,SED,Progressive Alliance of Socialists and Democrats,S&D,SED,Progressive Alliance of Socialists and Democrats,S&D,NC,Unknown,,,,Bezpartyjna,,,
POL-BEZY,Poland,POL,BEZY,Non-partisans,Bezpartyjny,,NI,Non-inscrits,NI,Non-attached members,NI,NI,Non-attached members,NI,NC,Unknown,,,,Bezpartyjny,,,
POL-NN,Poland,POL,NN,Nouvel espoir,Nowa Nadzieja,New hope,NI,Non-inscrits,NI,Non-attached members,NI,NC,Unknown,NC,EXD,Far right,,,,,,Nowa Nadzieja,
POL-NL,Poland,POL,NL,Nouvelle Gauche,Nowa Lewica,New Left,SED,Socialistes et démocrates,SED,Progressive Alliance of Socialists and Democrats,S&D,,,,GAU,Left,CEN,Center,,Nowa Lewica,,Nowa Lewica,
POL-PSL,Poland,POL,PSL,Parti paysan polonais,Polskie Stronnictwo Ludowe,,PPE,Parti populaire européen,PPE,European People's Party,EPP,PPE,European People's Party,EPP,DRO,Right,,,,Polskie Stronnictwo Ludowe,,Polskie Stronnictwo Ludowe,
POL-PO,Poland,POL,PO,Plateforme civique,Platforma Obywatelska,,PPE,Parti populaire européen,PPE,European People's Party,EPP,PPE,European People's Party,EPP,DRO,Right,CEN,Center,,Platforma Obywatelska,,Platforma Obywatelska,
POL-2050,Poland,POL,2050,Pologne 2050,Polska 2050,Poland 2050,RE,Renew Europe,RE,Renew Europe,RE,,,,CEN,Center,,,,Polska 2050,,Polska 2050 Szymona Hołowni,
POL-SOP,Poland,POL,SOP,Pologne solidaire,Solidarna Polska,United Poland,CRE,Conservateurs et réformistes,CRE,European Conservatives and Reformists,CRE,,,,DRO,Right,,,,Solidarna Polska Zbigniewa Ziobro,,,
POL-SUP,Poland,POL,SUP,Pologne souveraine,Suwerenna Polska,Sovereign Poland,CRE,Conservateurs et réformistes,CRE,European Conservatives and Reformists,CRE,NC,Unknown,NC,EXD,Far right,,,,Suwerenna Polska,,Suwerenna Polska,
POL-WIOSNA,Poland,POL,WIOSNA,Printemps,Wiosna,Spring,SED,Socialistes et démocrates,SED,Progressive Alliance of Socialists and Democrats,S&D,NI,Non-attached members,NI,LIB,Liberal,,,,Wiosna,,,
POL-ORP,Poland,POL,ORP,Renaissance de la République de Pologne,OdNowa Rzeczypospolitej Polskiej,Renewal of the Republic of Poland,NC,Groupe inconnu,NC,Unknown,NC,NC,Unknown,NC,DRO,Right,,,,,,OdNowa Rzeczypospolitej Polskiej,
POL-TD,Poland,POL,TD,Troisième voie,Trzecia Droga,Third Way,NC,Groupe inconnu,NC,Unknown,NC,NC,Unknown,NC,DRO,Right,CEN,Center,,,,,
POL-UP,Poland,POL,UP,Union du travail,Unia Pracy,,SED,Socialistes et démocrates,SED,Progressive Alliance of Socialists and Democrats,S&D,SED,Progressive Alliance of Socialists and Democrats,S&D,GAU,Left,,,,Unia Pracy,,,
PRT-PAF,Portugal,PRT,PAF,[Parti inconnu],,,NI,Non-inscrits,NI,Non-attached members,NI,NI,Non-attached members,NI,NC,Unknown,,,,nc,,,
PRT-A,Portugal,PRT,A,Alliance,Aliança,Alliance,PPE,Parti populaire européen,PPE,European People's Party,EPP,NC,Unknown,NC,DRO,Right,,,,,,,
PRT-BE,Portugal,PRT,BE,Bloc de gauche,Bloco de Esquerda,,LEFT,Gauche unitaire,GUE,European United Left – Nordic Green Left,GUE/NGL,GUE,European United Left – Nordic Green Left,GUE/NGL,EXG,Far left,ECO,Ecologist,,Bloco de Esquerda,,Bloco de Esquerda,
PRT-CDSPP,Portugal,PRT,CDSPP,CDS – Parti populaire,,,PPE,Parti populaire européen,PPE,European People's Party,EPP,PPE,European People's Party,EPP,DRO,Right,,,,nc,,Centro Democrático e Social-Partido Popular,
PRT-CHEGA,Portugal,PRT,CHEGA,Chega !,Chega !,Chega !,PPLE,Les Patriotes,ID,Identity and Democracy,IL,,,,EXD,Far right,,,,Chega,,Chega!,
PRT-CDU,Portugal,PRT,CDU,Coalition démocratique unitaire,,,LEFT,Gauche unitaire,GUE,European United Left – Nordic Green Left,GUE/NGL,GUE,European United Left – Nordic Green Left,GUE/NGL,EXG,Far left,ECO,Ecologist,,nc,,,
PRT-IND,Portugal,PRT,IND,Indépendants,Independente,Independants,PPE,Parti populaire européen,PPE,European People's Party,EPP,NI,Non-attached members,NI,AUT,Others,,,,Independente,,Independent (PT),
PRT-IL,Portugal,PRT,IL,Initiative libérale,Iniciativa Liberal,Liberal Initiative,RE,Renew Europe,RE,Renew Europe,RE,NC,Unknown,NC,CEN,Center,DRO,Right,,Iniciativa Liberal,,Iniciativa Liberal,
PRT-PCP,Portugal,PRT,PCP,Parti communiste portugais,Partido Comunista Português,,LEFT,Gauche unitaire,GUE,European United Left – Nordic Green Left,GUE/NGL,GUE,European United Left – Nordic Green Left,GUE/NGL,EXG,Far left,,,,Partido Comunista Português,,Partido Comunista Português,
PRT-PT,Portugal,PRT,PT,Parti de la Terre,Partido da Terra,,PPE,Parti populaire européen,PPE,European People's Party,EPP,PPE,European People's Party,EPP,CEN,Center,,,,Partido da Terra,,,
PRT-PDR,Portugal,PRT,PDR,Parti démocrate républicain,Partido Democrático Republicano,,RE,Renew Europe,RE,Renew Europe,RE,ADLE,Alliance of Liberals and Democrats for Europe,ALDE,LIB,Liberal,,,,Partido Democrático Republicano,,,
PRT-PCDS-PP,Portugal,PRT,PCDS-PP,Parti du centre démocratique – Parti populaire,Partido do Centro Democrático Social-Partido Popular,Center Democratic Party – Popular Party,PPE,Parti populaire européen,PPE,European People's Party,EPP,,,,DRO,Right,,,,Partido do Centro Democrático Social-Partido Popular,,,
PRT-PPDPSD,Portugal,PRT,PPDPSD,Parti social-démocrate,Partido Social Democrata,,PPE,Parti populaire européen,PPE,European People's Party,EPP,PPE,European People's Party,EPP,DRO,Right,,,,Partido Social Democrata,,Partido Social Democrata,
PRT-PS,Portugal,PRT,PS,Parti socialiste,Partido Socialista,,SED,Socialistes et démocrates,SED,Progressive Alliance of Socialists and Democrats,S&D,SED,Progressive Alliance of Socialists and Democrats,S&D,GAU,Left,,,,Partido Socialista,,Partido Socialista,
PRT-PAN,Portugal,PRT,PAN,Personnes Animaux Nature,Pessoas Animais Natureza,,VERTS,Verts et ALE,VERTS,Greens/European Free Alliance,Greens/EFA,NI,Non-attached members,NI,AUT,Others,ECO,Ecologist,,Pessoas-Animais-Natureza,,,
ROU-ALDERO,Romania,ROU,ALDERO,Alliance des libéraux et démocrates,ALDE Romania,,RE,Renew Europe,RE,Renew Europe,RE,ADLE,Alliance of Liberals and Democrats for Europe,ALDE,LIB,Liberal,CEN,Center,,ALDE Romania,,,
ROU-AUR,Romania,ROU,AUR,Alliance pour l'unité des Roumains,Alianța pentru Unirea Românilo,Alianța pentru Unirea Românilo,CRE,Conservateurs et réformistes,CRE,European Conservatives and Reformists,CRE,NC,Unknown,NC,EXD,Far right,,,,Alianța pentru Unirea Românilor,,Alianța pentru Unirea Românilor,
ROU-USRPLUS,Romania,ROU,USRPLUS,Alliance Sauver la Roumanie et Plus,Uniunea Salvați România + PLUS,Save Romania and Plus,RE,Renew Europe,RE,Renew Europe,RE,ADLE,Alliance of Liberals and Democrats for Europe,ALDE,LIB,Liberal,,,,USR-PLUS,,,
ROU-FD,Romania,ROU,FD,Force de la droite,Forța Dreptei,Force of the Right,PPE,Parti populaire européen,PPE,European People's Party,EPP,NC,Unknown,NC,DRO,Right,,,,,,Forța Dreptei,
ROU-IND,Romania,ROU,IND,Indépendants,,,NC,Groupe inconnu,NC,Unknown,NC,NC,Unknown,NC,NC,Unknown,,,,,,,
ROU-PRM,Romania,ROU,PRM,Parti de la Grande Roumanie,Partidul România Mare,,NC,Groupe inconnu,NC,Unknown,NC,NC,Unknown,NC,EXD,Far right,,,,nc,,,
ROU-PLUS,Romania,ROU,PLUS,"Parti de la liberté, de l'unité et de la solidarité","Partidul Libertății, Unității și Solidarității","Freedom, Unity and Solidarity Party",RE,Renew Europe,RE,Renew Europe,RE,,,,CEN,Center,DRO,Right,,"Partidul Libertate, Unitate și Solidaritate",,,
ROU-PLUS,Romania,ROU,PLUS,"Parti de la liberté, de l'unité et de la solidarité","Partidul Libertății, Unității și Solidarității","Freedom, Unity and Solidarity Party",RE,Renew Europe,RE,Renew Europe,RE,,,,CEN,Center,,,,,,,
ROU-PPU,Romania,ROU,PPU,Parti du pouvoir humaniste,Partidul Puterii Umaniste,,SED,Socialistes et démocrates,SED,Progressive Alliance of Socialists and Democrats,S&D,SED,Progressive Alliance of Socialists and Democrats,S&D,GAU,Left,,,,Partidul Puterii Umaniste,,,
ROU-PUSL,Romania,ROU,PUSL,Parti humaniste social-libéral,Partidul Umanist Social Liberal,Social Liberal Humanist Party,SED,Socialistes et démocrates,SED,Progressive Alliance of Socialists and Democrats,S&D,NC,Unknown,NC,CEN,Center,GAU,Left,,PUSL,,Partidul Umanist Social Liberal,
ROU-PLR,Romania,ROU,PLR,Parti libéral réformateur,,,NI,Non-inscrits,NI,Non-attached members,NI,NI,Non-attached members,NI,NC,Unknown,,,,nc,,,
ROU-PMP,Romania,ROU,PMP,Parti Mouvement populaire,Partidul Mișcarea Populară,,PPE,Parti populaire européen,PPE,European People's Party,EPP,PPE,European People's Party,EPP,DRO,Right,LIB,Liberal,,Partidul Mișcarea Populară,,Partidul Mișcarea Populară,
ROU-PNCR,Romania,ROU,PNCR,Parti national conservateur roumain,Partidului Național Conservator Român,,CRE,Conservateurs et réformistes,CRE,European Conservatives and Reformists,CRE,NC,Unknown,NC,AUT,Others,,,,PARTIDULUI NAȚIONAL CONSERVATOR ROMÂN (PNCR),,Partidului Național Conservator Român,
ROU-PNL,Romania,ROU,PNL,Parti national libéral,Partidul Naţional Liberal,,PPE,Parti populaire européen,PPE,European People's Party,EPP,PPE,European People's Party,EPP,LIB,Liberal,DRO,Right,,Partidul Naţional Liberal,,Partidul Național Liberal,
ROU-PNTCD,Romania,ROU,PNTCD,Parti national paysan chrétien-démocrate,Partidul Național Țărănesc Creștin Democrat,,PPE,Parti populaire européen,PPE,European People's Party,EPP,PPE,European People's Party,EPP,DRO,Right,CEN,Center,,nc,,,
ROU-PNTCD,Romania,ROU,PNTCD,Parti national paysan chrétien-démocrate,Partidul Național Țărănesc Creștin Democrat,Christian Democratic National Peasants’ Party,CRE,Conservateurs et réformistes,CRE,European Conservatives and Reformists,CRE,NC,Unknown,NC,DRO,Right,,,,Partidul Național Țărănesc Creștin Democrat,,,
ROU-PRU,Romania,ROU,PRU,Parti Roumanie unie,Partidul România Unită,,NC,Groupe inconnu,NC,Unknown,NC,NC,Unknown,NC,EXD,Far right,,,,nc,,,
ROU-PSD,Romania,ROU,PSD,Parti social démocrate,Partidul Social Democrat,,SED,Socialistes et démocrates,SED,Progressive Alliance of Socialists and Democrats,S&D,SED,Progressive Alliance of Socialists and Democrats,S&D,GAU,Left,,,,Partidul Social Democrat,,Partidul Social Democrat,
ROU-PRO,Romania,ROU,PRO,Pour la Roumanie,,,SED,Socialistes et démocrates,SED,Progressive Alliance of Socialists and Democrats,S&D,ADLE,Alliance of Liberals and Democrats for Europe,ALDE,CEN,Center,,,,PRO Romania,,,
ROU-REPER,Romania,ROU,REPER,Renouveler le projet européen de la Roumanie,Reînnoim Proiectul European al României,Renewing Romania's European Project,RE,Renew Europe,RE,Renew Europe,RE,,,,CEN,Center,,,,Reper,,,
ROU-ROPLUS,Romania,ROU,ROPLUS,Roumanie Plus,,,RE,Renew Europe,RE,Renew Europe,RE,ADLE,Alliance of Liberals and Democrats for Europe,ALDE,CEN,Center,,,,nc,,,
ROU-USR,Romania,ROU,USR,Sauver la Roumanie,Uniunea Salvați România,Save Romania,RE,Renew Europe,RE,Renew Europe,RE,NI,Non-attached members,NI,AUT,Others,,,,Uniunea Salvați România,Uniunea Salvați România,Uniunea Salvați România,USR
ROU-SOS,Romania,ROU,SOS,SOS Roumanie,SOS România,SOS Romania,NC,Groupe inconnu,ID,Identity and Democracy,IL,NC,Unknown,NC,EXD,Far right,,,,S.O.S. România,,Partidul S.O.S. România,
ROU-UDMR,Romania,ROU,UDMR,Union démocrate magyare de Roumanie,Uniunea Democrată Maghiară din România,,PPE,Parti populaire européen,PPE,European People's Party,EPP,PPE,European People's Party,EPP,AUT,Others,DRO,Right,,Uniunea Democrată Maghiară din România,,Uniunea Democrată Maghiară din România,
SVK-MA,Slovakia,SVK,MA,Alliance hongroise,Maďarská Aliancia,Hungarian Alliance,PPE,Parti populaire européen,PPE,European People's Party,EPP,,,,AUT,Others,,,,,,Magyar Szövetség,
SVK-D,Slovakia,SVK,D,Démocrates,Demokrati,Democrats,PPE,Parti populaire européen,PPE,European People's Party,EPP,,,,CEN,Center,DRO,Right,,Slovakia – Demokrati,,,
SVK-SMER-SD,Slovakia,SVK,SMER-SD,Direction – Social-démocratie,SMER – Sociálna demokracia,,NI,Non-inscrits,NI,Non-attached members,NI,SED,Progressive Alliance of Socialists and Democrats,S&D,NC,Unknown,,,,SMER-Sociálna demokracia,,SMER – Sociálna Demokracia,
SVK-SPOLU,Slovakia,SVK,SPOLU,Ensemble - Démocratie civique,,,PPE,Parti populaire européen,PPE,European People's Party,EPP,PPE,European People's Party,EPP,DRO,Right,,,,SPOLU – občianska demokracia,,,
SVK-HLAS,Slovakia,SVK,HLAS,Hlas – Social-démocratie,Hlas – sociálna demokracia,Voice – Social Democracy,SED,Socialistes et démocrates,SED,Progressive Alliance of Socialists and Democrats,S&D,NC,Unknown,NC,GAU,Left,,,,Hlas – sociálna demokracia,,HLAS – sociálna demokracia,
SVK-IND,Slovakia,SVK,IND,Indépendants,Independent,Independent,NC,Groupe inconnu,NC,Unknown,NC,,,,AUT,Others,,,,Independent,,,
SVK-OLANO-NOVA,Slovakia,SVK,OLANO-NOVA,Les gens ordinaires et personnalités indépendantes - Nouvelle majorité,Obyčajní ľudia a nezávislé osobnosti,Ordinary People,PPE,Parti populaire européen,PPE,European People's Party,EPP,CRE,European Conservatives and Reformists,CRE,DRO,Right,,,,Obyčajní ľudia a nezávislé osobnosti,,,
SVK-SAS,Slovakia,SVK,SAS,Liberté et Solidarité,Sloboda a solidarita,,CRE,Conservateurs et réformistes,CRE,European Conservatives and Reformists,CRE,CRE,European Conservatives and Reformists,CRE,LIB,Liberal,DSV,Right nationalist,,Sloboda a Solidarita,,Sloboda a solidarita,
SVK-KDH,Slovakia,SVK,KDH,Mouvement chrétien-démocrate,Kresťanskodemokratické hnutie,,PPE,Parti populaire européen,PPE,European People's Party,EPP,PPE,European People's Party,EPP,DRO,Right,,,,Kresťanskodemokratické hnutie,,Kresťanskodemokratické hnutie,
SVK-SME-RODINA,Slovakia,SVK,SME-RODINA,Nous sommes une famille,,,NC,Groupe inconnu,ID,Identity and Democracy,IL,ENL,Europe of Nations and Freedom,ENL,DRO,Right,,,,nc,,,
SVK-NOVA,Slovakia,SVK,NOVA,Nouvelle majorité,NOVA,,CRE,Conservateurs et réformistes,CRE,European Conservatives and Reformists,CRE,CRE,European Conservatives and Reformists,CRE,DRO,Right,,,,NOVA,,,
SVK-SMK-MKP,Slovakia,SVK,SMK-MKP,Parti de la communauté hongroise,Strana mad'arskej komunity- Magyar Közösség Pártja,,PPE,Parti populaire européen,PPE,European People's Party,EPP,PPE,European People's Party,EPP,DRO,Right,,,,Strana mad'arskej komunity- Magyar Közösség Pártja,,,
SVK-SNS,Slovakia,SVK,SNS,Parti national slovaque,,,NC,Groupe inconnu,NC,Unknown,NC,ELDD,Europe of Freedom and Direct Democracy,ELDD,EXD,Far right,DSV,Right nationalist,,nc,,,
SVK-SNS,Slovakia,SVK,SNS,Parti national slovaque,Slovenská Národná Strana,Slovak National Party,NC,Groupe inconnu,ID,Identity and Democracy,IL,NC,Unknown,NC,EXD,Far right,,,,,,Slovenská Národná Strana,
SVK-KOTLEBA_LSNS,Slovakia,SVK,KOTLEBA_LSNS,Parti populaire - Notre Slovaquie,,,NI,Non-inscrits,NI,Non-attached members,NI,ELDD,Europe of Freedom and Direct Democracy,ELDD,EXD,Far right,,,,Kotleba – Ľudová strana Naše Slovensko,,,
SVK-P,Slovakia,SVK,P,Patriote slovaque,Slovak Patriot,Slovac Patriot,NI,Non-inscrits,NI,Non-attached members,NI,,,,DRO,Right,,,,Slovak PATRIOT,,,
SVK-MOST_HID,Slovakia,SVK,MOST_HID,Pont,MOST – HÍD,,PPE,Parti populaire européen,PPE,European People's Party,EPP,PPE,European People's Party,EPP,CEN,Center,,,,MOST - HÍD,,,
SVK-R,Slovakia,SVK,R,République,Republika,Republic,NI,Non-inscrits,NI,Non-attached members,NI,,,,EXD,Far right,,,,Hnutie Republika,,Hnutie Republika,
SVK-OLANO,Slovakia,SVK,OLANO,Slovaquie,Slovensko,Slovaquie,PPE,Parti populaire européen,PPE,European People's Party,EPP,CRE,European Conservatives and Reformists,CRE,DRO,Right,,,,OBYČAJNÍ ĽUDIA,,Obyčajní Ľudia,Slovensko
SVK-PS,Slovakia,SVK,PS,Slovaquie progressiste,,,RE,Renew Europe,RE,Renew Europe,RE,NC,Unknown,NC,CEN,Center,,,,Progresívne Slovensko,,Progresívne Slovensko,
SVK-PSSPOLU,Slovakia,SVK,PSSPOLU,Slovaquie progressiste et Ensemble,Progresívne Slovensko + Spolu,Progressive Slovakia and Together,NC,Groupe inconnu,NC,Unknown,NC,ADLE,Alliance of Liberals and Democrats for Europe,ALDE,CEN,Center,,,,,,,
SVK-Z,Slovakia,SVK,Z,Vie – Parti national,Život – národná strana,Life – National Party,NC,Groupe inconnu,NC,Unknown,NC,NC,Unknown,NC,EXD,Far right,,,,,,Život – Národná strana,
SVN-ZL,Slovenia,SVN,ZL,Gauche Unie,,,LEFT,Gauche unitaire,GUE,European United Left – Nordic Green Left,GUE/NGL,GUE,European United Left – Nordic Green Left,GUE/NGL,EXG,Far left,DSV,Right nationalist,,nc,,,
SVN-LEVICA,Slovenia,SVN,LEVICA,La Gauche,Levica,The Left,LEFT,Gauche unitaire,GUE,European United Left – Nordic Green Left,GUE/NGL,GUE,European United Left – Nordic Green Left,GUE/NGL,EXG,Far left,,,,nc,,Levica,
SVN-LMS,Slovenia,SVN,LMS,La liste de Marjan Sarec,Lista Marjana Šarca,,RE,Renew Europe,RE,Renew Europe,RE,NI,Non-attached members,NI,GAU,Left,LIB,Liberal,,Lista Marjana Šarca,,,
SVN-PAB,Slovenia,SVN,PAB,Le parti d’Alenka Bratusek,,,RE,Renew Europe,RE,Renew Europe,RE,ADLE,Alliance of Liberals and Democrats for Europe,ALDE,CEN,Center,LIB,Liberal,,nc,,,
SVN-LIS,Slovenia,SVN,LIS,Liste Igorja Soltesa,Lista dr. Igorja Šoltesa,List of Dr. Igor Sholtes,VERTS,Verts et ALE,VERTS,Greens/European Free Alliance,Greens/EFA,VERTS,Greens/European Free Alliance,Greens/EFA,NC,Unknown,,,,Lista dr. Igorja Šoltesa,,,
SVN-GS,Slovenia,SVN,GS,Mouvement pour la liberté,Gibanje Svoboda,Freedom Movement,RE,Renew Europe,RE,Renew Europe,RE,,,,CEN,Center,GAU,Left,,GS,,Gibanje Svoboda,
SVN-NSI,Slovenia,SVN,NSI,Nouvelle Slovénie - Parti chrétien populaire,Nova Slovenija – Krščanski demokrati,,PPE,Parti populaire européen,PPE,European People's Party,EPP,PPE,European People's Party,EPP,DRO,Right,CEN,Center,,Nova Slovenija – Krščanski demokrati,,Nova Slovenija – Krščanski Demokrati,
SVN-LOGAR,Slovenia,SVN,LOGAR,Parti d'Anze Logar,Anze Logar,Anze Logar's Party,NI,Non-inscrits,NI,Non-attached members,NI,,,,AUT,Others,,,,,,Logar,
SVN-DESUS,Slovenia,SVN,DESUS,Parti démocrate des retraités slovènes,DeSUS – Demokratična Stranka Upokojencev Slovenije,,RE,Renew Europe,RE,Renew Europe,RE,ADLE,Alliance of Liberals and Democrats for Europe,ALDE,AUT,Others,CEN,Center,,DeSUS - Demokratična Stranka Upokojencev Slovenije,,,
SVN-SDS,Slovenia,SVN,SDS,Parti démocratique slovène,Slovenska demokratska stranka,,PPE,Parti populaire européen,PPE,European People's Party,EPP,PPE,European People's Party,EPP,DRO,Right,,,,Slovenska demokratska stranka,,Slovenska Demokratska Stranka,
SVN-SDSSLS,Slovenia,SVN,SDSSLS,Parti démocratique slovène / Parti populaire slovène,Slovenska demokratska stranka / Slovenska ljudska stranka,,PPE,Parti populaire européen,PPE,European People's Party,EPP,PPE,European People's Party,EPP,DRO,Right,,,,,,,
SVN-SMC,Slovenia,SVN,SMC,Parti du centre moderne,,,RE,Renew Europe,RE,Renew Europe,RE,ADLE,Alliance of Liberals and Democrats for Europe,ALDE,CEN,Center,,,,nc,,,
SVN-SNS,Slovenia,SVN,SNS,Parti national slovène,,,NI,Non-inscrits,NI,Non-attached members,NI,NI,Non-attached members,NI,EXD,Far right,,,,nc,,,
SVN-PPS,Slovenia,SVN,PPS,Parti pirate de Slovénie,,,NI,Non-inscrits,NI,Non-attached members,NI,NI,Non-attached members,NI,AUT,Others,,,,nc,,,
SVN-SLS,Slovenia,SVN,SLS,Parti populaire slovène,Slovenska ljudska stranka,,PPE,Parti populaire européen,PPE,European People's Party,EPP,PPE,European People's Party,EPP,DRO,Right,,,,Slovenska ljudska stranka,,,
SVN-PS,Slovenia,SVN,PS,Slovénie positive,,,NI,Non-inscrits,NI,Non-attached members,NI,NI,Non-attached members,NI,CEN,Center,GAU,Left,,nc,,,
SVN-SD,Slovenia,SVN,SD,Sociaux-démocrates,Socialni demokrati,,SED,Socialistes et démocrates,SED,Progressive Alliance of Socialists and Democrats,S&D,SED,Progressive Alliance of Socialists and Democrats,S&D,GAU,Left,,,,Socialni demokrati,,Socialni Demokrati,
SVN-V,Slovenia,SVN,V,Vesna – Le parti vert,VESNA – Zelena Stranka,Vesna – Green Party,VERTS,Verts et ALE,VERTS,Greens/European Free Alliance,Greens/EFA,,,,ECO,Ecologist,,,,Vesna – zelena stranka,,VESNA – Zelena Stranka,
ESP-AGG,Spain,ESP,AGG,Alternative galicienne de gauche,Alternativa galega de esquerda en Europa,,LEFT,Gauche unitaire,GUE,European United Left – Nordic Green Left,GUE/NGL,GUE,European United Left – Nordic Green Left,GUE/NGL,EXG,Far left,,,,Alternativa galega de esquerda en Europa,,,
ESP-ANTI,Spain,ESP,ANTI,Anticapitalistes,Anticapitalistas,Anticapitalists,LEFT,Gauche unitaire,GUE,European United Left – Nordic Green Left,GUE/NGL,NC,Unknown,NC,EXG,Far left,,,,ANTICAPITALISTAS,,,
ESP-BNG,Spain,ESP,BNG,Bloc nationaliste galicien,Bloque Nacionalista Galego,,VERTS,Verts et ALE,VERTS,Greens/European Free Alliance,Greens/EFA,VERTS,Greens/European Free Alliance,Greens/EFA,GAU,Left,,,,Bloque Nacionalista Galego,,,
ESP-CS,Spain,ESP,CS,Ciudadanos,Ciudadanos – Partido de la Ciudadanía,,RE,Renew Europe,RE,Renew Europe,RE,ADLE,Alliance of Liberals and Democrats for Europe,ALDE,CEN,Center,LIB,Liberal,,Ciudadanos – Partido de la Ciudadanía,,,
ESP-COALEAJ,Spain,ESP,COALEAJ,"Coalition EAJ-PNV, CC, CxG, Atarrabia Taldea, El Pi, Demòcrates Valencians","EAJ-PNV, CC, CxG, Atarrabia Taldea, El Pi, Demòcrates Valencians",,RE,Renew Europe,RE,Renew Europe,RE,ADLE,Alliance of Liberals and Democrats for Europe,ALDE,AUT,Others,,,,,,,
ESP-COALERC,Spain,ESP,COALERC,"Coalition ERC, Bildu et BNG","ERC, Bildu, BNG",,NC,Groupe inconnu,NC,Unknown,NC,VERTS,Greens/European Free Alliance,Greens/EFA,ECO,Ecologist,,,,,,,
ESP-COALCAT,Spain,ESP,COALCAT,Coalition PdCat et JXCat,"PdCat, JXCat",,NC,Groupe inconnu,NC,Unknown,NC,NC,Unknown,NC,AUT,Others,,,,,,,
ESP-CEU,Spain,ESP,CEU,Coalition pour l’Europe,Coalición por Europa,Coalition for Europe,RE,Renew Europe,RE,Renew Europe,RE,ADLE,Alliance of Liberals and Democrats for Europe,ALDE,AUT,Others,,,,,,,
ESP-COAL,Spain,ESP,COAL,"Coalition UP, IU, La Catalogne en commune et Barcelone en commun","UP, IU, Catalunya en Comú, Barcelona en Comú",,NC,Groupe inconnu,NC,Unknown,NC,NC,Unknown,NC,EXG,Far left,ECO,Ecologist,,,,,
ESP-DCS,Spain,ESP,DCS,Délégation européenne Ciudadanos,Delegación Ciudadanos Europeos,European delegation Ciudadanos,RE,Renew Europe,RE,Renew Europe,RE,,,,CEN,Center,,,,Delegación Ciudadanos Europeos,,,
ESP-JUNTSXCAT,Spain,ESP,JUNTSXCAT,Ensemble pour la Catalogne,Junts per Catalunya,Together for Catalonia,NI,Non-inscrits,NI,Non-attached members,NI,NC,Unknown,NC,AUT,Others,,,,,,Junts per Catalunya,
ESP-JC_LE,Spain,ESP,JC_LE,Ensemble pour la Catalogne – Libres pour l’Europe,Junts per Catalunya – Lliures per Europa,Together for Catalonia – Free for Europe,NI,Non-inscrits,NI,Non-attached members,NI,NC,Unknown,NC,AUT,Others,,,,Junts per Catalunya - Lliures per Europa,,,
ESP-EQUO,Spain,ESP,EQUO,Equo,EQUO,,VERTS,Verts et ALE,VERTS,Greens/European Free Alliance,Greens/EFA,VERTS,Greens/European Free Alliance,Greens/EFA,ECO,Ecologist,GAU,Left,,EQUO,,,
ESP-ERC,Spain,ESP,ERC,Gauche républicaine de Catalogne,Esquerra Republicana de Catalunya,,VERTS,Verts et ALE,VERTS,Greens/European Free Alliance,Greens/EFA,VERTS,Greens/European Free Alliance,Greens/EFA,GAU,Left,AUT,Others,,Esquerra Republicana de Catalunya,,Esquerra Republicana de Catalunya,
ESP-IU,Spain,ESP,IU,Gauche unie,Izquierda Unida,,LEFT,Gauche unitaire,GUE,European United Left – Nordic Green Left,GUE/NGL,GUE,European United Left – Nordic Green Left,GUE/NGL,EXG,Far left,,,,Izquierda Unida,,Izquierda Unida,
ESP-IX,Spain,ESP,IX,Gauche unie des Asturies,Izquierda Xunida,,LEFT,Gauche unitaire,GUE,European United Left – Nordic Green Left,GUE/NGL,GUE,European United Left – Nordic Green Left,GUE/NGL,EXG,Far left,,,,Izquierda Xunida,,,
ESP-IND,Spain,ESP,IND,Indépendants,Independiente,,RE,Renew Europe,RE,Renew Europe,RE,ADLE,Alliance of Liberals and Democrats for Europe,ALDE,NC,Unknown,,,,Independiente,,,
ESP-ICV,Spain,ESP,ICV,Initiative pour la Catalogne Verts,Iniciativa per Catalunya Verds,,VERTS,Verts et ALE,VERTS,Greens/European Free Alliance,Greens/EFA,VERTS,Greens/European Free Alliance,Greens/EFA,ECO,Ecologist,,,,Iniciativa per Catalunya Verds,,,
ESP-CATCOMU,Spain,ESP,CATCOMU,La Catalogne en commun,Catalunya en Comú,Catalonia in Common,VERTS,Verts et ALE,VERTS,Greens/European Free Alliance,Greens/EFA,,,,GAU,Left,,,,Catalunya en Comú,,Catalunya en Comú,
ESP-AR,Spain,ESP,AR,La République maintenant,Ahora Repúblicas,Republics Now,VERTS,Verts et ALE,VERTS,Greens/European Free Alliance,Greens/EFA,VERTS,Greens/European Free Alliance,Greens/EFA,AUT,Others,,,,,,,
ESP-PACMA,Spain,ESP,PACMA,Parti animaliste contre la maltraitance animale,,,NI,Non-inscrits,NI,Non-attached members,NI,NI,Non-attached members,NI,AUT,Others,,,,nc,,,
ESP-PDECAT,Spain,ESP,PDECAT,Parti démocrate européen catalan,Partit Demòcrata Europeu i Català,,RE,Renew Europe,RE,Renew Europe,RE,ADLE,Alliance of Liberals and Democrats for Europe,ALDE,LIB,Liberal,AUT,Others,,Partit Demòcrata Europeu i Català,,,
ESP-PSC,Spain,ESP,PSC,Parti des socialistes de Catalogne,Partit dels Socialistes de Catalunya,,SED,Socialistes et démocrates,SED,Progressive Alliance of Socialists and Democrats,S&D,SED,Progressive Alliance of Socialists and Democrats,S&D,GAU,Left,,,,Partit dels Socialistes de Catalunya,Partit dels Socialistes de Catalunya (PSC-PSOE),Partido de los Socialistas de Cataluña,
ESP-PNVEAJ,Spain,ESP,PNVEAJ,Parti national basque,Euzkadi Buru Batzarra,Basque National Party,RE,Renew Europe,RE,Renew Europe,RE,ADLE,Alliance of Liberals and Democrats for Europe,ALDE,CEN,Center,DRO,Right,,,,,
ESP-PNV,Spain,ESP,PNV,Parti nationaliste basque,Partido Nacionalista Vasco,,RE,Renew Europe,RE,Renew Europe,RE,ADLE,Alliance of Liberals and Democrats for Europe,ALDE,CEN,Center,AUT,Others,,Partido Nacionalista Vasco,,,
ESP-EAJ,Spain,ESP,EAJ,Parti nationaliste basque,Euzko Alderdi Jeltzalea – Partido Nacionalista Vasco,Basque Nationalist Party,RE,Renew Europe,RE,Renew Europe,RE,NC,Unknown,NC,AUT,Others,,,,,,Euzko Alderdi Jeltzalea – Partido Nacionalista Vasco,
ESP-PP,Spain,ESP,PP,Parti populaire,Partido Popular,,PPE,Parti populaire européen,PPE,European People's Party,EPP,PPE,European People's Party,EPP,DRO,Right,,,,Partido Popular,,Partido Popular,
ESP-PSOE,Spain,ESP,PSOE,Parti socialiste ouvrier espagnol,Partido Socialista Obrero Español,,SED,Socialistes et démocrates,SED,Progressive Alliance of Socialists and Democrats,S&D,SED,Progressive Alliance of Socialists and Democrats,S&D,GAU,Left,,,,Partido Socialista Obrero Español,,Partido Socialista Obrero Español,
ESP-MES,Spain,ESP,MES,Plus d'engagement,Més-Compromís,More–Commitment,VERTS,Verts et ALE,VERTS,Greens/European Free Alliance,Greens/EFA,NI,Non-attached members,NI,GAU,Left,,,,,,Més–Compromís,
ESP-MM,Spain,ESP,MM,Plus de Madrid,Más Madrid,More Madrid,VERTS,Verts et ALE,VERTS,Greens/European Free Alliance,Greens/EFA,NC,Unknown,NC,GAU,Left,,,,,,Más Madrid,
ESP-PODEMOS,Spain,ESP,PODEMOS,Podemos,PODEMOS,,LEFT,Gauche unitaire,GUE,European United Left – Nordic Green Left,GUE/NGL,GUE,European United Left – Nordic Green Left,GUE/NGL,GAU,Left,EXG,Far left,,PODEMOS,,Podemos,
ESP-PE,Spain,ESP,PE,Printemps européens,Primavera Europea,European Spring,VERTS,Verts et ALE,VERTS,Greens/European Free Alliance,Greens/EFA,VERTS,Greens/European Free Alliance,Greens/EFA,GAU,Left,,,,,,,
ESP-EHBILDU,Spain,ESP,EHBILDU,Réunir le Pays basque,Euskal Herria Bildu,,NC,Groupe inconnu,NC,Unknown,NC,NC,Unknown,NC,GAU,Left,,,,EH BILDU,,Euskal Herria Bildu,
ESP-SMR,Spain,ESP,SMR,Sumar,Sumar,Sumar,NC,Groupe inconnu,NC,Unknown,NC,NC,Unknown,NC,GAU,Left,,,,Movimiento Sumar,,Movimiento Sumar,
ESP-UPYD,Spain,ESP,UPYD,"Union, progrès et démocratie","Unión, Progreso y Democracia",,RE,Renew Europe,RE,Renew Europe,RE,ADLE,Alliance of Liberals and Democrats for Europe,ALDE,LIB,Liberal,CEN,Center,,"Unión, Progreso y Democracia",,,
ESP-VOX,Spain,ESP,VOX,Vox,,,PPLE,Les Patriotes,CRE,European Conservatives and Reformists,CRE,NI,Non-attached members,NI,EXD,Far right,DSV,Right nationalist,,VOX,,Vox,
SWE-KD,Sweden,SWE,KD,Chrétiens démocrates,Kristdemokraterna,,PPE,Parti populaire européen,PPE,European People's Party,EPP,PPE,European People's Party,EPP,DRO,Right,,,,Kristdemokraterna,,Kristdemokraterna,
SWE-SD,Sweden,SWE,SD,Démocrates suédois,Sverigedemokraterna,,CRE,Conservateurs et réformistes,CRE,European Conservatives and Reformists,CRE,CRE,European Conservatives and Reformists,CRE,EXD,Far right,DSV,Right nationalist,,Sverigedemokraterna,,Sverigedemokraterna,
SWE-FI,Sweden,SWE,FI,Initiative féministe,Feministiskt initiativ,,NI,Non-inscrits,NI,Non-attached members,NI,NI,Non-attached members,NI,AUT,Others,,,,Feministiskt initiativ,,,
SWE-L,Sweden,SWE,L,Les Libéraux,Liberalerna,,RE,Renew Europe,RE,Renew Europe,RE,ADLE,Alliance of Liberals and Democrats for Europe,ALDE,LIB,Liberal,LIB,Liberal,,Liberalerna,,,
SWE-V,Sweden,SWE,V,Parti de gauche,Vänsterpartiet,,LEFT,Gauche unitaire,GUE,European United Left – Nordic Green Left,GUE/NGL,GUE,European United Left – Nordic Green Left,GUE/NGL,EXG,Far left,GAU,Left,,Vänsterpartiet,,Vänsterpartiet,
SWE-MP,Sweden,SWE,MP,Parti de l'environnement - Les Verts,Miljöpartiet de gröna,,VERTS,Verts et ALE,VERTS,Greens/European Free Alliance,Greens/EFA,VERTS,Greens/European Free Alliance,Greens/EFA,ECO,Ecologist,,,,Miljöpartiet de gröna,,Miljöpartiet,
SWE-C,Sweden,SWE,C,Parti du centre,Centerpartiet,,RE,Renew Europe,RE,Renew Europe,RE,ADLE,Alliance of Liberals and Democrats for Europe,ALDE,LIB,Liberal,CEN,Center,,Centerpartiet,,Centerpartiet,
SWE-M,Sweden,SWE,M,Parti modéré de rassemblement,Moderata samlingspartiet,,PPE,Parti populaire européen,PPE,European People's Party,EPP,PPE,European People's Party,EPP,DRO,Right,,,,Moderaterna,,Moderata samlingspartiet,
SWE-PP,Sweden,SWE,PP,Parti pirate de Suède,Piratpartiet,Pirate Party,NC,Groupe inconnu,NC,Unknown,NC,NC,Unknown,NC,NC,Unknown,,,,,,,
SWE-S,Sweden,SWE,S,Parti social-démocrate suédois des travailleurs,Arbetarepartiet – Socialdemokraterna,,SED,Socialistes et démocrates,SED,Progressive Alliance of Socialists and Democrats,S&D,SED,Progressive Alliance of Socialists and Democrats,S&D,GAU,Left,,,,Arbetarepartiet- Socialdemokraterna,,Sveriges Socialdemokratiska Arbetareparti,
GBR-CHUK,United Kingdom,GBR,CHUK,Changer le Royaume-Uni,Change UK,Change UK,NC,Groupe inconnu,NC,Unknown,NC,NC,Unknown,NC,CEN,Center,,,,,,,
GBR-CON,United Kingdom,GBR,CON,Conservative and Unionist Party,Parti conservateur,Conservative and Unionist Party,CRE,Conservateurs et réformistes,CRE,European Conservatives and Reformists,CRE,CRE,European Conservatives and Reformists,CRE,DRO,Right,,,,,,,
GBR-IND,United Kingdom,GBR,IND,Indépendants,Independent,Independent,NI,Non-inscrits,NI,Non-attached members,NI,,,,AUT,Others,,,,Independent,,,
GBR-THI,United Kingdom,GBR,THI,Indépendants de Thurrock,Thurrock Independents,Thurrock Independents,NI,Non-inscrits,NI,Non-attached members,NI,ELDD,Europe of Freedom and Direct Democracy,ELDD,DRO,Right,,,,Thurrock Independents,,,
GBR-NC,United Kingdom,GBR,NC,Indéterminé,,,NI,Non-inscrits,NI,Non-attached members,NI,NI,Non-attached members,NI,NC,Unknown,,,,-,,,
GBR-APNI,United Kingdom,GBR,APNI,Parti Alliance,Alliance Party,,RE,Renew Europe,RE,Renew Europe,RE,NC,Unknown,NC,AUT,Others,,,,Alliance Party of Northern Ireland,,,
GBR-TORY,United Kingdom,GBR,TORY,Parti conservateur,Conservative Party,Conservative Party,CRE,Conservateurs et réformistes,CRE,European Conservatives and Reformists,CRE,CRE,European Conservatives and Reformists,CRE,CEN,Center,,,,Conservative Party,,,
GBR-BP,United Kingdom,GBR,BP,Parti du Brexit,Brexit Party,Brexit Party,NI,Non-inscrits,NI,Non-attached members,NI,ELDD,Europe of Freedom and Direct Democracy,ELDD,AUT,Others,,,,The Brexit Party,,,
GBR-LIBDEM,United Kingdom,GBR,LIBDEM,Parti libéral démocrate,Liberal Democrats,Liberal Democrats,RE,Renew Europe,RE,Renew Europe,RE,ADLE,Alliance of Liberals and Democrats for Europe,ALDE,LIB,Liberal,CEN,Center,,Liberal Democrats,,,
GBR-LIBERT,United Kingdom,GBR,LIBERT,Parti libertarien,Libertarian Party,Libertarian Party,NI,Non-inscrits,NI,Non-attached members,NI,ELDD,Europe of Freedom and Direct Democracy,ELDD,DRO,Right,,,,Libertarian Party,,,
GBR-SNP,United Kingdom,GBR,SNP,Parti national écossais,Scottish National Party,Scottish National Party,VERTS,Verts et ALE,VERTS,Greens/European Free Alliance,Greens/EFA,VERTS,Greens/European Free Alliance,Greens/EFA,GAU,Left,CEN,Center,,Scottish National Party,,,
GBR-UKIP,United Kingdom,GBR,UKIP,Parti pour l'indépendance du Royaume-Uni,United Kingdom Independence Party,United Kingdom Independence Party,NC,Groupe inconnu,ID,Identity and Democracy,IL,ENL,Europe of Nations and Freedom,ENL,DRO,Right,,,,United Kingdom Independence Party,,,
GBR-SDLP,United Kingdom,GBR,SDLP,Parti social-démocrate et travailliste,Social Democratic and Labour Party,Social Democratic and Labour Party,SED,Socialistes et démocrates,SED,Progressive Alliance of Socialists and Democrats,S&D,SED,Progressive Alliance of Socialists and Democrats,S&D,GAU,Left,,,,,,,
GBR-LAB,United Kingdom,GBR,LAB,Parti travailliste,Labour Party,Labour Party,SED,Socialistes et démocrates,SED,Progressive Alliance of Socialists and Democrats,S&D,SED,Progressive Alliance of Socialists and Democrats,S&D,GAU,Left,,,,,,,
GBR-LABOR,United Kingdom,GBR,LABOR,Parti travailliste,Labour Party,Labour Party,SED,Socialistes et démocrates,SED,Progressive Alliance of Socialists and Democrats,S&D,SED,Progressive Alliance of Socialists and Democrats,S&D,GAU,Left,,,,Labour Party,,,
GBR-UUP,United Kingdom,GBR,UUP,Parti unioniste d'Ulster,Ulster Unionist Party,Ulster Unionist Party,CRE,Conservateurs et réformistes,CRE,European Conservatives and Reformists,CRE,CRE,European Conservatives and Reformists,CRE,DRO,Right,,,,Ulster Unionist Party,,,
GBR-DUP,United Kingdom,GBR,DUP,Parti unioniste démocrate,Democratic Unionist Party,Democratic Unionist Party,NI,Non-inscrits,NI,Non-attached members,NI,NI,Non-attached members,NI,DRO,Right,,,,Democratic Unionist Party,,,
GBR-GREEN,United Kingdom,GBR,GREEN,Parti vert,Green Party,Green Party,VERTS,Verts et ALE,VERTS,Greens/European Free Alliance,Greens/EFA,VERTS,Greens/European Free Alliance,Greens/EFA,ECO,Ecologist,,,,Green Party,,,
GBR-OTHERS-NI,United Kingdom,GBR,OTHERS-NI,Partis d'Irlande du Nord,,,NI,Non-inscrits,NI,Non-attached members,NI,NI,Non-attached members,NI,NC,Unknown,,,,,,,
GBR-PC,United Kingdom,GBR,PC,Plaid Cymru,Plaid Cymru – Party of Wales,Plaid Cymru – Party of Wales,VERTS,Verts et ALE,VERTS,Greens/European Free Alliance,Greens/EFA,VERTS,Greens/European Free Alliance,Greens/EFA,GAU,Left,,,,Plaid Cymru - Party of Wales,,,
GBR-PLPW,United Kingdom,GBR,PLPW,Plaid Cymru,Plaid Cymru – Party of Wales,Plaid Cymru – Party of Wales,VERTS,Verts et ALE,VERTS,Greens/European Free Alliance,Greens/EFA,VERTS,Greens/European Free Alliance,Greens/EFA,GAU,Left,CEN,Center,,,,,
GBR-SF,United Kingdom,GBR,SF,Sinn Fein,Sinn Fein,Sinn Fein,LEFT,Gauche unitaire,GUE,European United Left – Nordic Green Left,GUE/NGL,GUE,European United Left – Nordic Green Left,GUE/NGL,GAU,Left,,,,Sinn Fein,,,
PRT-LIV,Unknown,PRT,LIV,Libre,Livre,Livre,VERTS,Verts et ALE,VERTS,Greens/European Free Alliance,Greens/EFA,NC,Unknown,NC,ECO,Ecologist,,,,,,Livre,
NC-NC,Unknown,NC,NC,Parti inconnu,Unknown party,,NC,Groupe inconnu,NC,Unknown,NC,,,,NC,Unknown,,,,,,,
CZE-PM,Czech Republic,CZE,PM,Serment et automobilistes,Přísaha and Motorists,Oath and Motorists,PPLE,Les Patriotes,,,,,,,EXD,Far right,,,,,,,
GRC-FL,Greece,GRC,FL,La Voix de la raison,Foní Logikís,Voice of Reason,PPLE,Les Patriotes,,,,,,,EXD,Far right,,,,Phoní Loyikís,Foní Logikís,,
CZE-ANS,Czech Republic,CZE,ANS,Alliance des forces nationales,Aliance národních sil,Alliance of National Forces,NI,Non-inscrits,,,,,,,EXD,Far right,,,,Aliance národních sil,,,
FRA-DVD,France,FRA,DVD,Divers droite,Divers droite,Other right,NI,Non-inscrits,,,,,,,DRO,Right,,,,Divers droite,,,
SVN-ZS,Slovenia,SVN,ZS,Les Verts de Slovénie,Zeleni Slovenije,Greens of Slovenia,RE,Renew Europe,,,,,,,ECO,Ecologist,,,,Zeleni Slovenije,,,
GRC-K,Greece,GRC,K,Kósmos,Kósmos,Kósmos,VERTS,Verts et ALE,,,,,,,ECO,Ecologist,GAU,Left,,KOSMOS,,,
HRV-PIP,Croatia,HRV,PIP,Droit et justice,Pravo I Pravda,Law and Justice,NI,Non-inscrits,,,,,,,DRO,Right,,,,PRAVO I PRAVDA,,,
SWE-F,Sweden,SWE,F,La liste du peuple,Folklistan,The People's List,PPE,Parti populaire européen,,,,,,,DRO,Right,,,,Folklistan,,,
LUX-F,Luxembourg,LUX,F,Fokus,Fokus,Fokus,RE,Renew Europe,,,,,,,AUT,Others,,,,Fokus,,,
ITA-AVS,Italy,ITA,AVS,Alliance des Verts et de la gauche,Alleanza Verdi e Sinistra,Alliance of the Greens and the Left,NI,Non-inscrits,,,,,,,ECO,Ecologist,GAU,Left,,Alleanza Verdi e Sinistra,,,
DEU-PDF,Germany,DEU,PDF,Parti du progrès,Partei des Fortschritts,Party of Progress,NI,Non-inscrits,,,,,,,LIB,Liberal,,,,Partei des Fortschritts,,,
ESP-SALF,Spain,ESP,SALF,La fête est finie,Se Acabó La Fiesta,The Party is over,NI,Non-inscrits,,,,,,,AUT,Others,,,,SE ACABÓ LA FIESTA,,,
ESP-C,Spain,ESP,C,Compromis,Compromís,Compromís,VERTS,Verts et ALE,,,,,,,GAU,Left,,,,Compromís,,,
FRA-MC,France,FRA,MC,Mouvement conservateur,Mouvement conservateur,Conservative movement,CRE,Conservateurs et réformistes,,,,,,,EXD,Far right,,,,Mouvement conservateur,,,
POL-KWN,Poland,POL,KWN,Confédération Liberté et Indépendance,Konfederacja Wolność i Niepodległość,Confederation Liberty and Independence,NI,Non-inscrits,,,,,,,EXD,Far right,,,,Konfederacja Wolność i Niepodległość,,,
PRT-AD,Portugal,PRT,AD,Alliance démocratique,Aliança Democrática,Democratic Alliance,PPE,Parti populaire européen,,,,,,,DRO,Right,,,,Aliança Democrática,,,
ROU-ADU,Romania,ROU,ADU,Alliance de la droite unie,Alianța Dreapta Unită,United Right Alliance,NC,Groupe inconnu,,,,,,,LIB,Liberal,,,,Alianța Dreapta Unită,,,
CZE-AUTO,Czech Republic,CZE,AUTO,Motoristé sobě,Motoristé sobě,Motorists for Themselves,PPLE,Les Patriotes,,,,,,,AUT,Others,,,,Motoristé sobě,,,